<?xml version="1.0" encoding="UTF-8"?><gpx xmlns="http://www.topografix.com/GPX/1/1" xmlns:xsi="http://www.w3.org/2001/XMLSchema-instance" xmlns:gpxtpx="http://www.garmin.com/xmlschemas/TrackPointExtension/v1" xmlns:gpxx="http://www.garmin.com/xmlschemas/GpxExtensions/v3" creator="StravaGPX" version="1.1" xsi:schemaLocation="http://www.topografix.com/GPX/1/1 http://www.topografix.com/GPX/1/1/gpx.xsd http://www.garmin.com/xmlschemas/GpxExtensions/v3 http://www.garmin.com/xmlschemas/GpxExtensionsv3.xsd http://www.garmin.com/xmlschemas/TrackPointExtension/v1 http://www.garmin.com/xmlschemas/TrackPointExtensionv1.xsd">
<metadata><time>2026-09-09T20:06:02Z</time></metadata>
<trk><name>羊蹄山 もうすっかり草紅葉</name><type>hiking</type><trkseg>
<trkpt lat="42.796258" lon="140.786062"><ele>387.6</ele><time>2026-09-09T20:06:02Z</time></trkpt>
<trkpt lat="42.796515" lon="140.786074"><ele>391.2</ele><time>2026-09-09T20:06:26Z</time></trkpt>
<trkpt lat="42.796990" lon="140.786216"><ele>398.4</ele><time>2026-09-09T20:07:13Z</time></trkpt>
<trkpt lat="42.797202" lon="140.786374"><ele>402.6</ele><time>2026-09-09T20:07:34Z</time></trkpt>
<trkpt lat="42.797301" lon="140.786520"><ele>404.4</ele><time>2026-09-09T20:07:44Z</time></trkpt>
<trkpt lat="42.797800" lon="140.786738"><ele>411.2</ele><time>2026-09-09T20:08:35Z</time></trkpt>
<trkpt lat="42.797778" lon="140.787103"><ele>415.6</ele><time>2026-09-09T20:09:03Z</time></trkpt>
<trkpt lat="42.797721" lon="140.787338"><ele>417.8</ele><time>2026-09-09T20:09:19Z</time></trkpt>
<trkpt lat="42.797752" lon="140.787619"><ele>425.2</ele><time>2026-09-09T20:09:54Z</time></trkpt>
<trkpt lat="42.797817" lon="140.787722"><ele>430.0</ele><time>2026-09-09T20:10:12Z</time></trkpt>
<trkpt lat="42.797785" lon="140.787990"><ele>440.2</ele><time>2026-09-09T20:10:58Z</time></trkpt>
<trkpt lat="42.798051" lon="140.787989"><ele>445.6</ele><time>2026-09-09T20:11:36Z</time></trkpt>
<trkpt lat="42.798292" lon="140.788178"><ele>450.2</ele><time>2026-09-09T20:12:08Z</time></trkpt>
<trkpt lat="42.798453" lon="140.788239"><ele>451.2</ele><time>2026-09-09T20:12:26Z</time></trkpt>
<trkpt lat="42.798568" lon="140.788360"><ele>454.2</ele><time>2026-09-09T20:12:56Z</time></trkpt>
<trkpt lat="42.798772" lon="140.788392"><ele>457.4</ele><time>2026-09-09T20:13:31Z</time></trkpt>
<trkpt lat="42.798969" lon="140.788492"><ele>460.8</ele><time>2026-09-09T20:13:53Z</time></trkpt>
<trkpt lat="42.798998" lon="140.788550"><ele>461.0</ele><time>2026-09-09T20:14:05Z</time></trkpt>
<trkpt lat="42.799290" lon="140.788582"><ele>466.4</ele><time>2026-09-09T20:14:39Z</time></trkpt>
<trkpt lat="42.799768" lon="140.789566"><ele>481.6</ele><time>2026-09-09T20:16:13Z</time></trkpt>
<trkpt lat="42.799903" lon="140.789658"><ele>486.2</ele><time>2026-09-09T20:16:36Z</time></trkpt>
<trkpt lat="42.799896" lon="140.789778"><ele>488.6</ele><time>2026-09-09T20:16:47Z</time></trkpt>
<trkpt lat="42.800004" lon="140.789795"><ele>491.2</ele><time>2026-09-09T20:17:03Z</time></trkpt>
<trkpt lat="42.800153" lon="140.789976"><ele>495.6</ele><time>2026-09-09T20:17:27Z</time></trkpt>
<trkpt lat="42.800317" lon="140.790007"><ele>500.0</ele><time>2026-09-09T20:17:55Z</time></trkpt>
<trkpt lat="42.800353" lon="140.790098"><ele>502.0</ele><time>2026-09-09T20:18:11Z</time></trkpt>
<trkpt lat="42.800531" lon="140.790250"><ele>509.2</ele><time>2026-09-09T20:18:43Z</time></trkpt>
<trkpt lat="42.800569" lon="140.790353"><ele>510.6</ele><time>2026-09-09T20:18:51Z</time></trkpt>
<trkpt lat="42.800712" lon="140.790510"><ele>516.0</ele><time>2026-09-09T20:19:19Z</time></trkpt>
<trkpt lat="42.800838" lon="140.790498"><ele>520.4</ele><time>2026-09-09T20:19:39Z</time></trkpt>
<trkpt lat="42.800858" lon="140.790574"><ele>522.2</ele><time>2026-09-09T20:19:48Z</time></trkpt>
<trkpt lat="42.800935" lon="140.790628"><ele>526.4</ele><time>2026-09-09T20:20:06Z</time></trkpt>
<trkpt lat="42.800997" lon="140.790865"><ele>531.8</ele><time>2026-09-09T20:20:34Z</time></trkpt>
<trkpt lat="42.801410" lon="140.791349"><ele>544.0</ele><time>2026-09-09T20:21:51Z</time></trkpt>
<trkpt lat="42.801601" lon="140.791431"><ele>550.6</ele><time>2026-09-09T20:22:23Z</time></trkpt>
<trkpt lat="42.802129" lon="140.791460"><ele>561.2</ele><time>2026-09-09T20:23:26Z</time></trkpt>
<trkpt lat="42.802230" lon="140.791554"><ele>565.0</ele><time>2026-09-09T20:23:46Z</time></trkpt>
<trkpt lat="42.802433" lon="140.791584"><ele>573.0</ele><time>2026-09-09T20:24:24Z</time></trkpt>
<trkpt lat="42.802553" lon="140.791713"><ele>576.2</ele><time>2026-09-09T20:24:45Z</time></trkpt>
<trkpt lat="42.802755" lon="140.791771"><ele>581.8</ele><time>2026-09-09T20:25:13Z</time></trkpt>
<trkpt lat="42.803070" lon="140.792213"><ele>592.4</ele><time>2026-09-09T20:26:23Z</time></trkpt>
<trkpt lat="42.803234" lon="140.792354"><ele>597.6</ele><time>2026-09-09T20:26:51Z</time></trkpt>
<trkpt lat="42.803374" lon="140.792279"><ele>602.0</ele><time>2026-09-09T20:27:16Z</time></trkpt>
<trkpt lat="42.803499" lon="140.792324"><ele>605.6</ele><time>2026-09-09T20:27:34Z</time></trkpt>
<trkpt lat="42.803641" lon="140.792293"><ele>610.4</ele><time>2026-09-09T20:28:01Z</time></trkpt>
<trkpt lat="42.803738" lon="140.792316"><ele>613.6</ele><time>2026-09-09T20:28:18Z</time></trkpt>
<trkpt lat="42.803802" lon="140.792433"><ele>617.6</ele><time>2026-09-09T20:28:39Z</time></trkpt>
<trkpt lat="42.803916" lon="140.792394"><ele>619.8</ele><time>2026-09-09T20:28:54Z</time></trkpt>
<trkpt lat="42.804093" lon="140.792495"><ele>625.8</ele><time>2026-09-09T20:29:28Z</time></trkpt>
<trkpt lat="42.804504" lon="140.792505"><ele>634.8</ele><time>2026-09-09T20:30:21Z</time></trkpt>
<trkpt lat="42.804774" lon="140.792760"><ele>643.0</ele><time>2026-09-09T20:31:05Z</time></trkpt>
<trkpt lat="42.804916" lon="140.792802"><ele>648.4</ele><time>2026-09-09T20:31:32Z</time></trkpt>
<trkpt lat="42.805008" lon="140.792894"><ele>651.8</ele><time>2026-09-09T20:31:50Z</time></trkpt>
<trkpt lat="42.805109" lon="140.793154"><ele>657.2</ele><time>2026-09-09T20:32:20Z</time></trkpt>
<trkpt lat="42.805250" lon="140.793274"><ele>661.2</ele><time>2026-09-09T20:32:43Z</time></trkpt>
<trkpt lat="42.805344" lon="140.793443"><ele>665.8</ele><time>2026-09-09T20:33:11Z</time></trkpt>
<trkpt lat="42.805666" lon="140.793339"><ele>675.2</ele><time>2026-09-09T20:34:02Z</time></trkpt>
<trkpt lat="42.805718" lon="140.793423"><ele>677.4</ele><time>2026-09-09T20:34:12Z</time></trkpt>
<trkpt lat="42.805791" lon="140.793742"><ele>684.2</ele><time>2026-09-09T20:34:41Z</time></trkpt>
<trkpt lat="42.805893" lon="140.793788"><ele>688.6</ele><time>2026-09-09T20:34:59Z</time></trkpt>
<trkpt lat="42.806021" lon="140.794011"><ele>696.6</ele><time>2026-09-09T20:35:39Z</time></trkpt>
<trkpt lat="42.805971" lon="140.794042"><ele>697.2</ele><time>2026-09-09T20:35:49Z</time></trkpt>
<trkpt lat="42.805971" lon="140.794237"><ele>701.2</ele><time>2026-09-09T20:36:10Z</time></trkpt>
<trkpt lat="42.805717" lon="140.794824"><ele>711.8</ele><time>2026-09-09T20:37:12Z</time></trkpt>
<trkpt lat="42.805683" lon="140.795024"><ele>715.2</ele><time>2026-09-09T20:37:29Z</time></trkpt>
<trkpt lat="42.805510" lon="140.795216"><ele>719.0</ele><time>2026-09-09T20:37:56Z</time></trkpt>
<trkpt lat="42.805467" lon="140.795580"><ele>721.4</ele><time>2026-09-09T20:38:28Z</time></trkpt>
<trkpt lat="42.805481" lon="140.795689"><ele>723.2</ele><time>2026-09-09T20:38:41Z</time></trkpt>
<trkpt lat="42.805582" lon="140.795771"><ele>727.6</ele><time>2026-09-09T20:38:59Z</time></trkpt>
<trkpt lat="42.805531" lon="140.795978"><ele>732.0</ele><time>2026-09-09T20:39:19Z</time></trkpt>
<trkpt lat="42.805641" lon="140.796133"><ele>734.2</ele><time>2026-09-09T20:39:38Z</time></trkpt>
<trkpt lat="42.805647" lon="140.796312"><ele>733.6</ele><time>2026-09-09T20:39:53Z</time></trkpt>
<trkpt lat="42.805779" lon="140.796464"><ele>740.6</ele><time>2026-09-09T20:40:25Z</time></trkpt>
<trkpt lat="42.805729" lon="140.796686"><ele>742.6</ele><time>2026-09-09T20:40:44Z</time></trkpt>
<trkpt lat="42.805739" lon="140.796834"><ele>746.2</ele><time>2026-09-09T20:41:01Z</time></trkpt>
<trkpt lat="42.806094" lon="140.796862"><ele>753.4</ele><time>2026-09-09T20:42:10Z</time></trkpt>
<trkpt lat="42.806226" lon="140.796799"><ele>757.0</ele><time>2026-09-09T20:42:30Z</time></trkpt>
<trkpt lat="42.806521" lon="140.796779"><ele>768.2</ele><time>2026-09-09T20:43:20Z</time></trkpt>
<trkpt lat="42.806613" lon="140.796709"><ele>771.4</ele><time>2026-09-09T20:43:39Z</time></trkpt>
<trkpt lat="42.806627" lon="140.796747"><ele>772.6</ele><time>2026-09-09T20:43:44Z</time></trkpt>
<trkpt lat="42.806972" lon="140.796827"><ele>782.6</ele><time>2026-09-09T20:44:36Z</time></trkpt>
<trkpt lat="42.807287" lon="140.796812"><ele>789.2</ele><time>2026-09-09T20:45:12Z</time></trkpt>
<trkpt lat="42.807613" lon="140.796697"><ele>800.2</ele><time>2026-09-09T20:46:06Z</time></trkpt>
<trkpt lat="42.807724" lon="140.796778"><ele>805.0</ele><time>2026-09-09T20:46:29Z</time></trkpt>
<trkpt lat="42.808173" lon="140.796795"><ele>819.4</ele><time>2026-09-09T20:47:44Z</time></trkpt>
<trkpt lat="42.808441" lon="140.796724"><ele>828.2</ele><time>2026-09-09T20:48:29Z</time></trkpt>
<trkpt lat="42.808625" lon="140.796815"><ele>834.8</ele><time>2026-09-09T20:49:02Z</time></trkpt>
<trkpt lat="42.808826" lon="140.796730"><ele>840.0</ele><time>2026-09-09T20:49:31Z</time></trkpt>
<trkpt lat="42.808923" lon="140.796801"><ele>845.0</ele><time>2026-09-09T20:49:52Z</time></trkpt>
<trkpt lat="42.809094" lon="140.796797"><ele>849.4</ele><time>2026-09-09T20:50:16Z</time></trkpt>
<trkpt lat="42.809254" lon="140.796864"><ele>858.0</ele><time>2026-09-09T20:50:55Z</time></trkpt>
<trkpt lat="42.809306" lon="140.796962"><ele>860.8</ele><time>2026-09-09T20:51:10Z</time></trkpt>
<trkpt lat="42.809320" lon="140.796906"><ele>860.6</ele><time>2026-09-09T20:51:25Z</time></trkpt>
<trkpt lat="42.809410" lon="140.797044"><ele>865.4</ele><time>2026-09-09T20:52:09Z</time></trkpt>
<trkpt lat="42.809524" lon="140.797095"><ele>868.2</ele><time>2026-09-09T20:52:45Z</time></trkpt>
<trkpt lat="42.809862" lon="140.797580"><ele>880.6</ele><time>2026-09-09T20:53:57Z</time></trkpt>
<trkpt lat="42.809967" lon="140.797642"><ele>884.8</ele><time>2026-09-09T20:54:17Z</time></trkpt>
<trkpt lat="42.809999" lon="140.797725"><ele>886.2</ele><time>2026-09-09T20:54:25Z</time></trkpt>
<trkpt lat="42.810122" lon="140.797775"><ele>891.8</ele><time>2026-09-09T20:54:51Z</time></trkpt>
<trkpt lat="42.810123" lon="140.797856"><ele>893.0</ele><time>2026-09-09T20:55:05Z</time></trkpt>
<trkpt lat="42.810294" lon="140.798065"><ele>902.0</ele><time>2026-09-09T20:55:48Z</time></trkpt>
<trkpt lat="42.810282" lon="140.798194"><ele>901.0</ele><time>2026-09-09T20:56:03Z</time></trkpt>
<trkpt lat="42.810363" lon="140.798318"><ele>906.0</ele><time>2026-09-09T20:56:25Z</time></trkpt>
<trkpt lat="42.810385" lon="140.798512"><ele>909.4</ele><time>2026-09-09T20:56:46Z</time></trkpt>
<trkpt lat="42.810491" lon="140.798718"><ele>914.6</ele><time>2026-09-09T20:57:12Z</time></trkpt>
<trkpt lat="42.810518" lon="140.799022"><ele>923.4</ele><time>2026-09-09T20:57:51Z</time></trkpt>
<trkpt lat="42.810633" lon="140.799343"><ele>930.8</ele><time>2026-09-09T20:58:31Z</time></trkpt>
<trkpt lat="42.810624" lon="140.799794"><ele>940.0</ele><time>2026-09-09T20:59:24Z</time></trkpt>
<trkpt lat="42.810658" lon="140.799913"><ele>942.2</ele><time>2026-09-09T20:59:38Z</time></trkpt>
<trkpt lat="42.810607" lon="140.800094"><ele>944.8</ele><time>2026-09-09T20:59:54Z</time></trkpt>
<trkpt lat="42.810644" lon="140.800499"><ele>952.8</ele><time>2026-09-09T21:00:42Z</time></trkpt>
<trkpt lat="42.810619" lon="140.800621"><ele>956.0</ele><time>2026-09-09T21:00:59Z</time></trkpt>
<trkpt lat="42.810650" lon="140.800693"><ele>958.6</ele><time>2026-09-09T21:01:11Z</time></trkpt>
<trkpt lat="42.810635" lon="140.800802"><ele>962.4</ele><time>2026-09-09T21:01:29Z</time></trkpt>
<trkpt lat="42.810585" lon="140.800775"><ele>962.2</ele><time>2026-09-09T21:01:59Z</time></trkpt>
<trkpt lat="42.810627" lon="140.800877"><ele>961.2</ele><time>2026-09-09T21:02:31Z</time></trkpt>
<trkpt lat="42.810636" lon="140.800809"><ele>961.4</ele><time>2026-09-09T21:02:41Z</time></trkpt>
<trkpt lat="42.810596" lon="140.800799"><ele>961.4</ele><time>2026-09-09T21:03:02Z</time></trkpt>
<trkpt lat="42.810590" lon="140.800854"><ele>961.4</ele><time>2026-09-09T21:03:13Z</time></trkpt>
<trkpt lat="42.810636" lon="140.800879"><ele>961.2</ele><time>2026-09-09T21:03:20Z</time></trkpt>
<trkpt lat="42.810610" lon="140.800914"><ele>961.2</ele><time>2026-09-09T21:03:31Z</time></trkpt>
<trkpt lat="42.810611" lon="140.800791"><ele>961.0</ele><time>2026-09-09T21:04:05Z</time></trkpt>
<trkpt lat="42.810590" lon="140.800837"><ele>961.2</ele><time>2026-09-09T21:04:17Z</time></trkpt>
<trkpt lat="42.810715" lon="140.800815"><ele>966.0</ele><time>2026-09-09T21:05:01Z</time></trkpt>
<trkpt lat="42.810770" lon="140.800873"><ele>969.6</ele><time>2026-09-09T21:05:17Z</time></trkpt>
<trkpt lat="42.810837" lon="140.800830"><ele>970.8</ele><time>2026-09-09T21:05:24Z</time></trkpt>
<trkpt lat="42.811021" lon="140.800628"><ele>976.0</ele><time>2026-09-09T21:05:58Z</time></trkpt>
<trkpt lat="42.811079" lon="140.800639"><ele>978.2</ele><time>2026-09-09T21:06:11Z</time></trkpt>
<trkpt lat="42.811095" lon="140.800563"><ele>980.2</ele><time>2026-09-09T21:06:23Z</time></trkpt>
<trkpt lat="42.811349" lon="140.800415"><ele>989.0</ele><time>2026-09-09T21:07:07Z</time></trkpt>
<trkpt lat="42.811457" lon="140.800273"><ele>992.0</ele><time>2026-09-09T21:07:25Z</time></trkpt>
<trkpt lat="42.811520" lon="140.800102"><ele>994.4</ele><time>2026-09-09T21:07:42Z</time></trkpt>
<trkpt lat="42.811566" lon="140.800063"><ele>995.8</ele><time>2026-09-09T21:07:49Z</time></trkpt>
<trkpt lat="42.811692" lon="140.800113"><ele>1002.8</ele><time>2026-09-09T21:08:19Z</time></trkpt>
<trkpt lat="42.811724" lon="140.800060"><ele>1005.8</ele><time>2026-09-09T21:08:34Z</time></trkpt>
<trkpt lat="42.811870" lon="140.800269"><ele>1015.0</ele><time>2026-09-09T21:09:21Z</time></trkpt>
<trkpt lat="42.811796" lon="140.800529"><ele>1016.4</ele><time>2026-09-09T21:09:50Z</time></trkpt>
<trkpt lat="42.811773" lon="140.800832"><ele>1020.6</ele><time>2026-09-09T21:10:22Z</time></trkpt>
<trkpt lat="42.811812" lon="140.801039"><ele>1026.2</ele><time>2026-09-09T21:10:53Z</time></trkpt>
<trkpt lat="42.812005" lon="140.801004"><ele>1035.0</ele><time>2026-09-09T21:11:41Z</time></trkpt>
<trkpt lat="42.812054" lon="140.800798"><ele>1037.0</ele><time>2026-09-09T21:12:02Z</time></trkpt>
<trkpt lat="42.812276" lon="140.800658"><ele>1044.8</ele><time>2026-09-09T21:12:39Z</time></trkpt>
<trkpt lat="42.812398" lon="140.800382"><ele>1054.0</ele><time>2026-09-09T21:13:25Z</time></trkpt>
<trkpt lat="42.812667" lon="140.800650"><ele>1068.0</ele><time>2026-09-09T21:14:43Z</time></trkpt>
<trkpt lat="42.812769" lon="140.800937"><ele>1077.4</ele><time>2026-09-09T21:15:31Z</time></trkpt>
<trkpt lat="42.812882" lon="140.801604"><ele>1093.6</ele><time>2026-09-09T21:17:06Z</time></trkpt>
<trkpt lat="42.813066" lon="140.801189"><ele>1101.6</ele><time>2026-09-09T21:18:00Z</time></trkpt>
<trkpt lat="42.813145" lon="140.801164"><ele>1104.8</ele><time>2026-09-09T21:18:14Z</time></trkpt>
<trkpt lat="42.813388" lon="140.800869"><ele>1113.8</ele><time>2026-09-09T21:19:06Z</time></trkpt>
<trkpt lat="42.813438" lon="140.800871"><ele>1115.6</ele><time>2026-09-09T21:19:15Z</time></trkpt>
<trkpt lat="42.813670" lon="140.801144"><ele>1131.4</ele><time>2026-09-09T21:20:36Z</time></trkpt>
<trkpt lat="42.813705" lon="140.801373"><ele>1140.8</ele><time>2026-09-09T21:21:17Z</time></trkpt>
<trkpt lat="42.813788" lon="140.801545"><ele>1144.4</ele><time>2026-09-09T21:21:43Z</time></trkpt>
<trkpt lat="42.813759" lon="140.801646"><ele>1147.6</ele><time>2026-09-09T21:22:02Z</time></trkpt>
<trkpt lat="42.813893" lon="140.802076"><ele>1157.4</ele><time>2026-09-09T21:22:55Z</time></trkpt>
<trkpt lat="42.814068" lon="140.802502"><ele>1168.4</ele><time>2026-09-09T21:23:56Z</time></trkpt>
<trkpt lat="42.814255" lon="140.802743"><ele>1178.6</ele><time>2026-09-09T21:24:56Z</time></trkpt>
<trkpt lat="42.814333" lon="140.802613"><ele>1182.4</ele><time>2026-09-09T21:25:17Z</time></trkpt>
<trkpt lat="42.814362" lon="140.802441"><ele>1186.4</ele><time>2026-09-09T21:25:38Z</time></trkpt>
<trkpt lat="42.814490" lon="140.802261"><ele>1192.2</ele><time>2026-09-09T21:26:07Z</time></trkpt>
<trkpt lat="42.814524" lon="140.802097"><ele>1194.6</ele><time>2026-09-09T21:26:20Z</time></trkpt>
<trkpt lat="42.814622" lon="140.801929"><ele>1198.8</ele><time>2026-09-09T21:26:45Z</time></trkpt>
<trkpt lat="42.814647" lon="140.801948"><ele>1200.0</ele><time>2026-09-09T21:26:52Z</time></trkpt>
<trkpt lat="42.814629" lon="140.802191"><ele>1202.2</ele><time>2026-09-09T21:27:12Z</time></trkpt>
<trkpt lat="42.814716" lon="140.802538"><ele>1206.6</ele><time>2026-09-09T21:27:47Z</time></trkpt>
<trkpt lat="42.814780" lon="140.802279"><ele>1212.4</ele><time>2026-09-09T21:28:26Z</time></trkpt>
<trkpt lat="42.814854" lon="140.802222"><ele>1214.2</ele><time>2026-09-09T21:28:36Z</time></trkpt>
<trkpt lat="42.814895" lon="140.802077"><ele>1216.4</ele><time>2026-09-09T21:28:54Z</time></trkpt>
<trkpt lat="42.814940" lon="140.802082"><ele>1218.2</ele><time>2026-09-09T21:29:06Z</time></trkpt>
<trkpt lat="42.814913" lon="140.802188"><ele>1219.8</ele><time>2026-09-09T21:29:16Z</time></trkpt>
<trkpt lat="42.814980" lon="140.802358"><ele>1222.8</ele><time>2026-09-09T21:29:38Z</time></trkpt>
<trkpt lat="42.814944" lon="140.802550"><ele>1224.6</ele><time>2026-09-09T21:29:53Z</time></trkpt>
<trkpt lat="42.815021" lon="140.802641"><ele>1226.2</ele><time>2026-09-09T21:30:14Z</time></trkpt>
<trkpt lat="42.815119" lon="140.802903"><ele>1232.6</ele><time>2026-09-09T21:30:48Z</time></trkpt>
<trkpt lat="42.815170" lon="140.802724"><ele>1236.2</ele><time>2026-09-09T21:31:11Z</time></trkpt>
<trkpt lat="42.815247" lon="140.802638"><ele>1238.4</ele><time>2026-09-09T21:31:24Z</time></trkpt>
<trkpt lat="42.815269" lon="140.802505"><ele>1241.8</ele><time>2026-09-09T21:31:42Z</time></trkpt>
<trkpt lat="42.815304" lon="140.802497"><ele>1243.0</ele><time>2026-09-09T21:31:49Z</time></trkpt>
<trkpt lat="42.815577" lon="140.801966"><ele>1254.4</ele><time>2026-09-09T21:33:04Z</time></trkpt>
<trkpt lat="42.815724" lon="140.802611"><ele>1268.2</ele><time>2026-09-09T21:34:41Z</time></trkpt>
<trkpt lat="42.815739" lon="140.802949"><ele>1270.4</ele><time>2026-09-09T21:35:34Z</time></trkpt>
<trkpt lat="42.815713" lon="140.802908"><ele>1270.6</ele><time>2026-09-09T21:35:42Z</time></trkpt>
<trkpt lat="42.815767" lon="140.802909"><ele>1272.6</ele><time>2026-09-09T21:35:56Z</time></trkpt>
<trkpt lat="42.815871" lon="140.802753"><ele>1277.2</ele><time>2026-09-09T21:36:19Z</time></trkpt>
<trkpt lat="42.815984" lon="140.802394"><ele>1281.4</ele><time>2026-09-09T21:37:08Z</time></trkpt>
<trkpt lat="42.815998" lon="140.802593"><ele>1286.0</ele><time>2026-09-09T21:37:31Z</time></trkpt>
<trkpt lat="42.816066" lon="140.802776"><ele>1289.4</ele><time>2026-09-09T21:37:51Z</time></trkpt>
<trkpt lat="42.816068" lon="140.802954"><ele>1291.2</ele><time>2026-09-09T21:38:11Z</time></trkpt>
<trkpt lat="42.816163" lon="140.802750"><ele>1296.4</ele><time>2026-09-09T21:38:39Z</time></trkpt>
<trkpt lat="42.816416" lon="140.802409"><ele>1307.0</ele><time>2026-09-09T21:39:38Z</time></trkpt>
<trkpt lat="42.816406" lon="140.802213"><ele>1310.2</ele><time>2026-09-09T21:39:58Z</time></trkpt>
<trkpt lat="42.816419" lon="140.802271"><ele>1311.2</ele><time>2026-09-09T21:40:21Z</time></trkpt>
<trkpt lat="42.816463" lon="140.801857"><ele>1317.2</ele><time>2026-09-09T21:41:18Z</time></trkpt>
<trkpt lat="42.816403" lon="140.801616"><ele>1313.8</ele><time>2026-09-09T21:41:51Z</time></trkpt>
<trkpt lat="42.816423" lon="140.801487"><ele>1315.2</ele><time>2026-09-09T21:42:03Z</time></trkpt>
<trkpt lat="42.816524" lon="140.801435"><ele>1321.2</ele><time>2026-09-09T21:42:42Z</time></trkpt>
<trkpt lat="42.816506" lon="140.801331"><ele>1322.4</ele><time>2026-09-09T21:42:51Z</time></trkpt>
<trkpt lat="42.816682" lon="140.801242"><ele>1326.4</ele><time>2026-09-09T21:43:18Z</time></trkpt>
<trkpt lat="42.817260" lon="140.801686"><ele>1355.4</ele><time>2026-09-09T21:45:46Z</time></trkpt>
<trkpt lat="42.817547" lon="140.801598"><ele>1363.2</ele><time>2026-09-09T21:46:38Z</time></trkpt>
<trkpt lat="42.817616" lon="140.801534"><ele>1365.6</ele><time>2026-09-09T21:46:49Z</time></trkpt>
<trkpt lat="42.817708" lon="140.801543"><ele>1368.0</ele><time>2026-09-09T21:47:04Z</time></trkpt>
<trkpt lat="42.817771" lon="140.801437"><ele>1369.2</ele><time>2026-09-09T21:47:16Z</time></trkpt>
<trkpt lat="42.817844" lon="140.801459"><ele>1372.2</ele><time>2026-09-09T21:47:32Z</time></trkpt>
<trkpt lat="42.817993" lon="140.801344"><ele>1379.2</ele><time>2026-09-09T21:48:13Z</time></trkpt>
<trkpt lat="42.818233" lon="140.801352"><ele>1386.2</ele><time>2026-09-09T21:48:47Z</time></trkpt>
<trkpt lat="42.818055" lon="140.801573"><ele>1387.6</ele><time>2026-09-09T21:49:23Z</time></trkpt>
<trkpt lat="42.817982" lon="140.802106"><ele>1398.6</ele><time>2026-09-09T21:50:36Z</time></trkpt>
<trkpt lat="42.818220" lon="140.801987"><ele>1406.6</ele><time>2026-09-09T21:51:17Z</time></trkpt>
<trkpt lat="42.818344" lon="140.801830"><ele>1413.4</ele><time>2026-09-09T21:51:59Z</time></trkpt>
<trkpt lat="42.818470" lon="140.801786"><ele>1416.6</ele><time>2026-09-09T21:52:18Z</time></trkpt>
<trkpt lat="42.818432" lon="140.802120"><ele>1424.4</ele><time>2026-09-09T21:53:05Z</time></trkpt>
<trkpt lat="42.818510" lon="140.802537"><ele>1437.8</ele><time>2026-09-09T21:54:19Z</time></trkpt>
<trkpt lat="42.818585" lon="140.802438"><ele>1442.4</ele><time>2026-09-09T21:54:46Z</time></trkpt>
<trkpt lat="42.818638" lon="140.802443"><ele>1444.8</ele><time>2026-09-09T21:55:12Z</time></trkpt>
<trkpt lat="42.818739" lon="140.802263"><ele>1446.8</ele><time>2026-09-09T21:55:40Z</time></trkpt>
<trkpt lat="42.818825" lon="140.802273"><ele>1450.0</ele><time>2026-09-09T21:55:54Z</time></trkpt>
<trkpt lat="42.818799" lon="140.802255"><ele>1450.2</ele><time>2026-09-09T21:55:58Z</time></trkpt>
<trkpt lat="42.818841" lon="140.802158"><ele>1451.2</ele><time>2026-09-09T21:56:10Z</time></trkpt>
<trkpt lat="42.818891" lon="140.802259"><ele>1453.4</ele><time>2026-09-09T21:56:28Z</time></trkpt>
<trkpt lat="42.818829" lon="140.802373"><ele>1457.2</ele><time>2026-09-09T21:57:00Z</time></trkpt>
<trkpt lat="42.818860" lon="140.802424"><ele>1460.2</ele><time>2026-09-09T21:57:11Z</time></trkpt>
<trkpt lat="42.819125" lon="140.802219"><ele>1468.8</ele><time>2026-09-09T21:58:33Z</time></trkpt>
<trkpt lat="42.819113" lon="140.802313"><ele>1469.0</ele><time>2026-09-09T21:59:26Z</time></trkpt>
<trkpt lat="42.819099" lon="140.802199"><ele>1469.6</ele><time>2026-09-09T22:01:36Z</time></trkpt>
<trkpt lat="42.819183" lon="140.802078"><ele>1474.0</ele><time>2026-09-09T22:02:29Z</time></trkpt>
<trkpt lat="42.819455" lon="140.801848"><ele>1486.4</ele><time>2026-09-09T22:03:36Z</time></trkpt>
<trkpt lat="42.819579" lon="140.801809"><ele>1492.4</ele><time>2026-09-09T22:04:05Z</time></trkpt>
<trkpt lat="42.819626" lon="140.801702"><ele>1496.2</ele><time>2026-09-09T22:04:23Z</time></trkpt>
<trkpt lat="42.819685" lon="140.801722"><ele>1497.2</ele><time>2026-09-09T22:04:30Z</time></trkpt>
<trkpt lat="42.819709" lon="140.801972"><ele>1505.0</ele><time>2026-09-09T22:05:16Z</time></trkpt>
<trkpt lat="42.819816" lon="140.801815"><ele>1510.8</ele><time>2026-09-09T22:05:45Z</time></trkpt>
<trkpt lat="42.819882" lon="140.801839"><ele>1512.8</ele><time>2026-09-09T22:05:55Z</time></trkpt>
<trkpt lat="42.819856" lon="140.802056"><ele>1520.0</ele><time>2026-09-09T22:06:30Z</time></trkpt>
<trkpt lat="42.819964" lon="140.802028"><ele>1524.8</ele><time>2026-09-09T22:07:01Z</time></trkpt>
<trkpt lat="42.820063" lon="140.801885"><ele>1529.2</ele><time>2026-09-09T22:07:24Z</time></trkpt>
<trkpt lat="42.820233" lon="140.801892"><ele>1534.8</ele><time>2026-09-09T22:07:59Z</time></trkpt>
<trkpt lat="42.820291" lon="140.801997"><ele>1540.6</ele><time>2026-09-09T22:08:23Z</time></trkpt>
<trkpt lat="42.820198" lon="140.802135"><ele>1545.2</ele><time>2026-09-09T22:08:45Z</time></trkpt>
<trkpt lat="42.820199" lon="140.802371"><ele>1549.0</ele><time>2026-09-09T22:09:10Z</time></trkpt>
<trkpt lat="42.820242" lon="140.802494"><ele>1554.6</ele><time>2026-09-09T22:09:55Z</time></trkpt>
<trkpt lat="42.820178" lon="140.802597"><ele>1558.2</ele><time>2026-09-09T22:10:14Z</time></trkpt>
<trkpt lat="42.820208" lon="140.802693"><ele>1561.8</ele><time>2026-09-09T22:10:31Z</time></trkpt>
<trkpt lat="42.820293" lon="140.802749"><ele>1567.6</ele><time>2026-09-09T22:11:22Z</time></trkpt>
<trkpt lat="42.820298" lon="140.802694"><ele>1568.2</ele><time>2026-09-09T22:11:30Z</time></trkpt>
<trkpt lat="42.820355" lon="140.802660"><ele>1571.8</ele><time>2026-09-09T22:11:43Z</time></trkpt>
<trkpt lat="42.820428" lon="140.802693"><ele>1574.4</ele><time>2026-09-09T22:11:55Z</time></trkpt>
<trkpt lat="42.820576" lon="140.802605"><ele>1582.4</ele><time>2026-09-09T22:12:41Z</time></trkpt>
<trkpt lat="42.820664" lon="140.802607"><ele>1585.0</ele><time>2026-09-09T22:13:04Z</time></trkpt>
<trkpt lat="42.820717" lon="140.802520"><ele>1587.2</ele><time>2026-09-09T22:13:19Z</time></trkpt>
<trkpt lat="42.820957" lon="140.802377"><ele>1592.0</ele><time>2026-09-09T22:14:11Z</time></trkpt>
<trkpt lat="42.820999" lon="140.802045"><ele>1590.4</ele><time>2026-09-09T22:14:45Z</time></trkpt>
<trkpt lat="42.821069" lon="140.801923"><ele>1592.6</ele><time>2026-09-09T22:14:59Z</time></trkpt>
<trkpt lat="42.821313" lon="140.801940"><ele>1599.6</ele><time>2026-09-09T22:15:40Z</time></trkpt>
<trkpt lat="42.821549" lon="140.801878"><ele>1607.4</ele><time>2026-09-09T22:16:19Z</time></trkpt>
<trkpt lat="42.821567" lon="140.801788"><ele>1610.4</ele><time>2026-09-09T22:16:45Z</time></trkpt>
<trkpt lat="42.821725" lon="140.801727"><ele>1612.8</ele><time>2026-09-09T22:17:25Z</time></trkpt>
<trkpt lat="42.821803" lon="140.801634"><ele>1614.0</ele><time>2026-09-09T22:17:52Z</time></trkpt>
<trkpt lat="42.821810" lon="140.801525"><ele>1614.2</ele><time>2026-09-09T22:18:03Z</time></trkpt>
<trkpt lat="42.821912" lon="140.801363"><ele>1613.0</ele><time>2026-09-09T22:18:19Z</time></trkpt>
<trkpt lat="42.821945" lon="140.801125"><ele>1611.8</ele><time>2026-09-09T22:18:49Z</time></trkpt>
<trkpt lat="42.822024" lon="140.801098"><ele>1614.0</ele><time>2026-09-09T22:19:03Z</time></trkpt>
<trkpt lat="42.822114" lon="140.800925"><ele>1617.2</ele><time>2026-09-09T22:19:22Z</time></trkpt>
<trkpt lat="42.822184" lon="140.800670"><ele>1613.0</ele><time>2026-09-09T22:19:47Z</time></trkpt>
<trkpt lat="42.822348" lon="140.800452"><ele>1614.2</ele><time>2026-09-09T22:20:15Z</time></trkpt>
<trkpt lat="42.822491" lon="140.800022"><ele>1617.0</ele><time>2026-09-09T22:21:14Z</time></trkpt>
<trkpt lat="42.822486" lon="140.799856"><ele>1614.4</ele><time>2026-09-09T22:21:33Z</time></trkpt>
<trkpt lat="42.822677" lon="140.799379"><ele>1609.0</ele><time>2026-09-09T22:22:43Z</time></trkpt>
<trkpt lat="42.822665" lon="140.799211"><ele>1607.4</ele><time>2026-09-09T22:22:59Z</time></trkpt>
<trkpt lat="42.822722" lon="140.799153"><ele>1607.4</ele><time>2026-09-09T22:23:13Z</time></trkpt>
<trkpt lat="42.822716" lon="140.798930"><ele>1607.8</ele><time>2026-09-09T22:23:35Z</time></trkpt>
<trkpt lat="42.822804" lon="140.798541"><ele>1612.0</ele><time>2026-09-09T22:24:12Z</time></trkpt>
<trkpt lat="42.822927" lon="140.798421"><ele>1618.4</ele><time>2026-09-09T22:24:40Z</time></trkpt>
<trkpt lat="42.822951" lon="140.798458"><ele>1620.4</ele><time>2026-09-09T22:24:49Z</time></trkpt>
<trkpt lat="42.822975" lon="140.798427"><ele>1620.8</ele><time>2026-09-09T22:24:56Z</time></trkpt>
<trkpt lat="42.823041" lon="140.798244"><ele>1625.0</ele><time>2026-09-09T22:25:20Z</time></trkpt>
<trkpt lat="42.823099" lon="140.798231"><ele>1626.2</ele><time>2026-09-09T22:25:28Z</time></trkpt>
<trkpt lat="42.823097" lon="140.798183"><ele>1627.6</ele><time>2026-09-09T22:25:39Z</time></trkpt>
<trkpt lat="42.823104" lon="140.798241"><ele>1627.4</ele><time>2026-09-09T22:25:45Z</time></trkpt>
<trkpt lat="42.823079" lon="140.798202"><ele>1627.6</ele><time>2026-09-09T22:26:04Z</time></trkpt>
<trkpt lat="42.823118" lon="140.798119"><ele>1628.8</ele><time>2026-09-09T22:26:11Z</time></trkpt>
<trkpt lat="42.823331" lon="140.798181"><ele>1636.8</ele><time>2026-09-09T22:26:50Z</time></trkpt>
<trkpt lat="42.823453" lon="140.798108"><ele>1638.6</ele><time>2026-09-09T22:27:10Z</time></trkpt>
<trkpt lat="42.823631" lon="140.798195"><ele>1644.0</ele><time>2026-09-09T22:27:33Z</time></trkpt>
<trkpt lat="42.823810" lon="140.798195"><ele>1646.8</ele><time>2026-09-09T22:28:00Z</time></trkpt>
<trkpt lat="42.824026" lon="140.798527"><ele>1659.8</ele><time>2026-09-09T22:29:05Z</time></trkpt>
<trkpt lat="42.824030" lon="140.798708"><ele>1665.0</ele><time>2026-09-09T22:29:33Z</time></trkpt>
<trkpt lat="42.823976" lon="140.798756"><ele>1668.4</ele><time>2026-09-09T22:29:48Z</time></trkpt>
<trkpt lat="42.824001" lon="140.798823"><ele>1670.4</ele><time>2026-09-09T22:30:13Z</time></trkpt>
<trkpt lat="42.823925" lon="140.799079"><ele>1679.6</ele><time>2026-09-09T22:30:50Z</time></trkpt>
<trkpt lat="42.823751" lon="140.799139"><ele>1683.8</ele><time>2026-09-09T22:31:12Z</time></trkpt>
<trkpt lat="42.823807" lon="140.799531"><ele>1686.0</ele><time>2026-09-09T22:32:14Z</time></trkpt>
<trkpt lat="42.823864" lon="140.799565"><ele>1686.4</ele><time>2026-09-09T22:32:35Z</time></trkpt>
<trkpt lat="42.823838" lon="140.799774"><ele>1689.4</ele><time>2026-09-09T22:32:58Z</time></trkpt>
<trkpt lat="42.823873" lon="140.799895"><ele>1690.2</ele><time>2026-09-09T22:33:12Z</time></trkpt>
<trkpt lat="42.823862" lon="140.799982"><ele>1690.8</ele><time>2026-09-09T22:33:18Z</time></trkpt>
<trkpt lat="42.823814" lon="140.799957"><ele>1690.4</ele><time>2026-09-09T22:33:32Z</time></trkpt>
<trkpt lat="42.823846" lon="140.799986"><ele>1690.0</ele><time>2026-09-09T22:33:41Z</time></trkpt>
<trkpt lat="42.823811" lon="140.799968"><ele>1689.4</ele><time>2026-09-09T22:34:38Z</time></trkpt>
<trkpt lat="42.823829" lon="140.799927"><ele>1689.4</ele><time>2026-09-09T22:34:43Z</time></trkpt>
<trkpt lat="42.823851" lon="140.800031"><ele>1689.6</ele><time>2026-09-09T22:36:08Z</time></trkpt>
<trkpt lat="42.823858" lon="140.799986"><ele>1690.4</ele><time>2026-09-09T22:36:40Z</time></trkpt>
<trkpt lat="42.823817" lon="140.800036"><ele>1690.0</ele><time>2026-09-09T22:36:54Z</time></trkpt>
<trkpt lat="42.823841" lon="140.800017"><ele>1690.0</ele><time>2026-09-09T22:36:58Z</time></trkpt>
<trkpt lat="42.824103" lon="140.800374"><ele>1687.6</ele><time>2026-09-09T22:37:43Z</time></trkpt>
<trkpt lat="42.824106" lon="140.800509"><ele>1689.6</ele><time>2026-09-09T22:38:03Z</time></trkpt>
<trkpt lat="42.824257" lon="140.800625"><ele>1690.2</ele><time>2026-09-09T22:38:23Z</time></trkpt>
<trkpt lat="42.824320" lon="140.800955"><ele>1700.2</ele><time>2026-09-09T22:39:11Z</time></trkpt>
<trkpt lat="42.824805" lon="140.801281"><ele>1711.6</ele><time>2026-09-09T22:40:31Z</time></trkpt>
<trkpt lat="42.824935" lon="140.801488"><ele>1718.6</ele><time>2026-09-09T22:41:02Z</time></trkpt>
<trkpt lat="42.824930" lon="140.801567"><ele>1721.0</ele><time>2026-09-09T22:41:12Z</time></trkpt>
<trkpt lat="42.825077" lon="140.801854"><ele>1731.4</ele><time>2026-09-09T22:42:01Z</time></trkpt>
<trkpt lat="42.825283" lon="140.802157"><ele>1740.6</ele><time>2026-09-09T22:42:53Z</time></trkpt>
<trkpt lat="42.825466" lon="140.802170"><ele>1746.0</ele><time>2026-09-09T22:43:32Z</time></trkpt>
<trkpt lat="42.825521" lon="140.802240"><ele>1748.6</ele><time>2026-09-09T22:43:48Z</time></trkpt>
<trkpt lat="42.825424" lon="140.802456"><ele>1755.6</ele><time>2026-09-09T22:44:29Z</time></trkpt>
<trkpt lat="42.825395" lon="140.802724"><ele>1764.4</ele><time>2026-09-09T22:45:13Z</time></trkpt>
<trkpt lat="42.825315" lon="140.802865"><ele>1769.0</ele><time>2026-09-09T22:45:38Z</time></trkpt>
<trkpt lat="42.825219" lon="140.802881"><ele>1772.4</ele><time>2026-09-09T22:46:13Z</time></trkpt>
<trkpt lat="42.825160" lon="140.803002"><ele>1778.8</ele><time>2026-09-09T22:46:48Z</time></trkpt>
<trkpt lat="42.825299" lon="140.803163"><ele>1784.6</ele><time>2026-09-09T22:47:15Z</time></trkpt>
<trkpt lat="42.825670" lon="140.803146"><ele>1795.4</ele><time>2026-09-09T22:48:09Z</time></trkpt>
<trkpt lat="42.825769" lon="140.803205"><ele>1797.8</ele><time>2026-09-09T22:48:20Z</time></trkpt>
<trkpt lat="42.825827" lon="140.803169"><ele>1800.0</ele><time>2026-09-09T22:48:28Z</time></trkpt>
<trkpt lat="42.825873" lon="140.803227"><ele>1802.2</ele><time>2026-09-09T22:48:55Z</time></trkpt>
<trkpt lat="42.825993" lon="140.803083"><ele>1802.8</ele><time>2026-09-09T22:49:34Z</time></trkpt>
<trkpt lat="42.826164" lon="140.803000"><ele>1805.8</ele><time>2026-09-09T22:49:54Z</time></trkpt>
<trkpt lat="42.826523" lon="140.802938"><ele>1816.6</ele><time>2026-09-09T22:50:45Z</time></trkpt>
<trkpt lat="42.826677" lon="140.802742"><ele>1821.4</ele><time>2026-09-09T22:51:10Z</time></trkpt>
<trkpt lat="42.826853" lon="140.802632"><ele>1825.4</ele><time>2026-09-09T22:51:32Z</time></trkpt>
<trkpt lat="42.826867" lon="140.802672"><ele>1825.2</ele><time>2026-09-09T22:51:47Z</time></trkpt>
<trkpt lat="42.826945" lon="140.802574"><ele>1827.0</ele><time>2026-09-09T22:52:14Z</time></trkpt>
<trkpt lat="42.827188" lon="140.802559"><ele>1834.8</ele><time>2026-09-09T22:52:48Z</time></trkpt>
<trkpt lat="42.827454" lon="140.802443"><ele>1840.2</ele><time>2026-09-09T22:53:29Z</time></trkpt>
<trkpt lat="42.827833" lon="140.802422"><ele>1844.0</ele><time>2026-09-09T22:54:19Z</time></trkpt>
<trkpt lat="42.828173" lon="140.802515"><ele>1850.0</ele><time>2026-09-09T22:54:55Z</time></trkpt>
<trkpt lat="42.828313" lon="140.802448"><ele>1851.8</ele><time>2026-09-09T22:55:11Z</time></trkpt>
<trkpt lat="42.828530" lon="140.802238"><ele>1850.0</ele><time>2026-09-09T22:55:44Z</time></trkpt>
<trkpt lat="42.828557" lon="140.802342"><ele>1850.2</ele><time>2026-09-09T22:55:51Z</time></trkpt>
<trkpt lat="42.828528" lon="140.802428"><ele>1848.6</ele><time>2026-09-09T22:55:59Z</time></trkpt>
<trkpt lat="42.828606" lon="140.802481"><ele>1845.6</ele><time>2026-09-09T22:56:15Z</time></trkpt>
<trkpt lat="42.828584" lon="140.802572"><ele>1842.4</ele><time>2026-09-09T22:56:30Z</time></trkpt>
<trkpt lat="42.828695" lon="140.802838"><ele>1838.0</ele><time>2026-09-09T22:56:56Z</time></trkpt>
<trkpt lat="42.828671" lon="140.802826"><ele>1837.0</ele><time>2026-09-09T22:57:12Z</time></trkpt>
<trkpt lat="42.828721" lon="140.802952"><ele>1838.0</ele><time>2026-09-09T22:57:26Z</time></trkpt>
<trkpt lat="42.828747" lon="140.803220"><ele>1838.0</ele><time>2026-09-09T22:57:46Z</time></trkpt>
<trkpt lat="42.828962" lon="140.803262"><ele>1841.2</ele><time>2026-09-09T22:58:11Z</time></trkpt>
<trkpt lat="42.829118" lon="140.803603"><ele>1848.0</ele><time>2026-09-09T22:58:44Z</time></trkpt>
<trkpt lat="42.829157" lon="140.803770"><ele>1850.6</ele><time>2026-09-09T22:58:59Z</time></trkpt>
<trkpt lat="42.829114" lon="140.804040"><ele>1844.6</ele><time>2026-09-09T22:59:31Z</time></trkpt>
<trkpt lat="42.829176" lon="140.804176"><ele>1840.0</ele><time>2026-09-09T22:59:53Z</time></trkpt>
<trkpt lat="42.829139" lon="140.804290"><ele>1836.8</ele><time>2026-09-09T23:00:08Z</time></trkpt>
<trkpt lat="42.829203" lon="140.804375"><ele>1834.6</ele><time>2026-09-09T23:00:20Z</time></trkpt>
<trkpt lat="42.829165" lon="140.804605"><ele>1829.2</ele><time>2026-09-09T23:00:46Z</time></trkpt>
<trkpt lat="42.829222" lon="140.804715"><ele>1826.8</ele><time>2026-09-09T23:00:58Z</time></trkpt>
<trkpt lat="42.829397" lon="140.804870"><ele>1825.0</ele><time>2026-09-09T23:01:19Z</time></trkpt>
<trkpt lat="42.829430" lon="140.804971"><ele>1824.8</ele><time>2026-09-09T23:01:27Z</time></trkpt>
<trkpt lat="42.829545" lon="140.805552"><ele>1819.2</ele><time>2026-09-09T23:02:11Z</time></trkpt>
<trkpt lat="42.829652" lon="140.806398"><ele>1829.4</ele><time>2026-09-09T23:03:28Z</time></trkpt>
<trkpt lat="42.829899" lon="140.806664"><ele>1838.6</ele><time>2026-09-09T23:04:16Z</time></trkpt>
<trkpt lat="42.829938" lon="140.806850"><ele>1843.4</ele><time>2026-09-09T23:04:43Z</time></trkpt>
<trkpt lat="42.829976" lon="140.806821"><ele>1844.0</ele><time>2026-09-09T23:04:58Z</time></trkpt>
<trkpt lat="42.829998" lon="140.806899"><ele>1847.4</ele><time>2026-09-09T23:05:12Z</time></trkpt>
<trkpt lat="42.830062" lon="140.806883"><ele>1848.8</ele><time>2026-09-09T23:05:21Z</time></trkpt>
<trkpt lat="42.830054" lon="140.806994"><ele>1851.0</ele><time>2026-09-09T23:05:33Z</time></trkpt>
<trkpt lat="42.830149" lon="140.806929"><ele>1854.4</ele><time>2026-09-09T23:05:50Z</time></trkpt>
<trkpt lat="42.830202" lon="140.807120"><ele>1857.8</ele><time>2026-09-09T23:06:09Z</time></trkpt>
<trkpt lat="42.830341" lon="140.807138"><ele>1862.6</ele><time>2026-09-09T23:06:33Z</time></trkpt>
<trkpt lat="42.830412" lon="140.807242"><ele>1863.4</ele><time>2026-09-09T23:06:53Z</time></trkpt>
<trkpt lat="42.830421" lon="140.807495"><ele>1861.2</ele><time>2026-09-09T23:07:12Z</time></trkpt>
<trkpt lat="42.830350" lon="140.808174"><ele>1852.4</ele><time>2026-09-09T23:08:07Z</time></trkpt>
<trkpt lat="42.830377" lon="140.808606"><ele>1851.4</ele><time>2026-09-09T23:08:35Z</time></trkpt>
<trkpt lat="42.830461" lon="140.808883"><ele>1857.2</ele><time>2026-09-09T23:08:58Z</time></trkpt>
<trkpt lat="42.830409" lon="140.809156"><ele>1860.6</ele><time>2026-09-09T23:09:18Z</time></trkpt>
<trkpt lat="42.830101" lon="140.809817"><ele>1864.2</ele><time>2026-09-09T23:10:09Z</time></trkpt>
<trkpt lat="42.829932" lon="140.809915"><ele>1866.8</ele><time>2026-09-09T23:10:32Z</time></trkpt>
<trkpt lat="42.829947" lon="140.810004"><ele>1868.4</ele><time>2026-09-09T23:10:42Z</time></trkpt>
<trkpt lat="42.829856" lon="140.810022"><ele>1870.4</ele><time>2026-09-09T23:10:54Z</time></trkpt>
<trkpt lat="42.829825" lon="140.810178"><ele>1868.6</ele><time>2026-09-09T23:11:11Z</time></trkpt>
<trkpt lat="42.829691" lon="140.810204"><ele>1872.2</ele><time>2026-09-09T23:11:33Z</time></trkpt>
<trkpt lat="42.829601" lon="140.810362"><ele>1876.2</ele><time>2026-09-09T23:12:03Z</time></trkpt>
<trkpt lat="42.829534" lon="140.810400"><ele>1877.0</ele><time>2026-09-09T23:12:14Z</time></trkpt>
<trkpt lat="42.829372" lon="140.810757"><ele>1881.4</ele><time>2026-09-09T23:12:46Z</time></trkpt>
<trkpt lat="42.829114" lon="140.810727"><ele>1888.4</ele><time>2026-09-09T23:13:34Z</time></trkpt>
<trkpt lat="42.829011" lon="140.810781"><ele>1888.6</ele><time>2026-09-09T23:13:50Z</time></trkpt>
<trkpt lat="42.828936" lon="140.810913"><ele>1887.2</ele><time>2026-09-09T23:14:06Z</time></trkpt>
<trkpt lat="42.828889" lon="140.810933"><ele>1884.6</ele><time>2026-09-09T23:14:12Z</time></trkpt>
<trkpt lat="42.828864" lon="140.810885"><ele>1885.8</ele><time>2026-09-09T23:14:19Z</time></trkpt>
<trkpt lat="42.828794" lon="140.810931"><ele>1887.6</ele><time>2026-09-09T23:14:34Z</time></trkpt>
<trkpt lat="42.828865" lon="140.810836"><ele>1888.2</ele><time>2026-09-09T23:14:45Z</time></trkpt>
<trkpt lat="42.828860" lon="140.810715"><ele>1894.0</ele><time>2026-09-09T23:15:04Z</time></trkpt>
<trkpt lat="42.828811" lon="140.810657"><ele>1895.6</ele><time>2026-09-09T23:15:27Z</time></trkpt>
<trkpt lat="42.828809" lon="140.810808"><ele>1890.0</ele><time>2026-09-09T23:15:58Z</time></trkpt>
<trkpt lat="42.828704" lon="140.810827"><ele>1889.0</ele><time>2026-09-09T23:16:17Z</time></trkpt>
<trkpt lat="42.828567" lon="140.810936"><ele>1890.2</ele><time>2026-09-09T23:16:41Z</time></trkpt>
<trkpt lat="42.828416" lon="140.811142"><ele>1894.6</ele><time>2026-09-09T23:17:09Z</time></trkpt>
<trkpt lat="42.828240" lon="140.811283"><ele>1893.2</ele><time>2026-09-09T23:17:30Z</time></trkpt>
<trkpt lat="42.828245" lon="140.811232"><ele>1891.6</ele><time>2026-09-09T23:17:36Z</time></trkpt>
<trkpt lat="42.828047" lon="140.811484"><ele>1889.6</ele><time>2026-09-09T23:18:12Z</time></trkpt>
<trkpt lat="42.827906" lon="140.811558"><ele>1889.6</ele><time>2026-09-09T23:18:31Z</time></trkpt>
<trkpt lat="42.827890" lon="140.811644"><ele>1885.8</ele><time>2026-09-09T23:18:39Z</time></trkpt>
<trkpt lat="42.827739" lon="140.811734"><ele>1886.0</ele><time>2026-09-09T23:19:01Z</time></trkpt>
<trkpt lat="42.827517" lon="140.811730"><ele>1887.6</ele><time>2026-09-09T23:19:28Z</time></trkpt>
<trkpt lat="42.827212" lon="140.811869"><ele>1883.6</ele><time>2026-09-09T23:20:40Z</time></trkpt>
<trkpt lat="42.827100" lon="140.811828"><ele>1884.6</ele><time>2026-09-09T23:20:55Z</time></trkpt>
<trkpt lat="42.827008" lon="140.811653"><ele>1883.6</ele><time>2026-09-09T23:21:13Z</time></trkpt>
<trkpt lat="42.826846" lon="140.811638"><ele>1883.2</ele><time>2026-09-09T23:21:45Z</time></trkpt>
<trkpt lat="42.826694" lon="140.811688"><ele>1883.4</ele><time>2026-09-09T23:22:09Z</time></trkpt>
<trkpt lat="42.826636" lon="140.811565"><ele>1888.6</ele><time>2026-09-09T23:22:31Z</time></trkpt>
<trkpt lat="42.826659" lon="140.811530"><ele>1890.4</ele><time>2026-09-09T23:22:38Z</time></trkpt>
<trkpt lat="42.826611" lon="140.811501"><ele>1893.6</ele><time>2026-09-09T23:24:20Z</time></trkpt>
<trkpt lat="42.826587" lon="140.811555"><ele>1893.4</ele><time>2026-09-09T23:24:56Z</time></trkpt>
<trkpt lat="42.826606" lon="140.811494"><ele>1892.4</ele><time>2026-09-09T23:25:13Z</time></trkpt>
<trkpt lat="42.826576" lon="140.811469"><ele>1893.4</ele><time>2026-09-09T23:25:21Z</time></trkpt>
<trkpt lat="42.826571" lon="140.811511"><ele>1891.4</ele><time>2026-09-09T23:25:26Z</time></trkpt>
<trkpt lat="42.826557" lon="140.811457"><ele>1888.8</ele><time>2026-09-09T23:25:38Z</time></trkpt>
<trkpt lat="42.826381" lon="140.811512"><ele>1879.8</ele><time>2026-09-09T23:26:39Z</time></trkpt>
<trkpt lat="42.826246" lon="140.811388"><ele>1881.4</ele><time>2026-09-09T23:27:40Z</time></trkpt>
<trkpt lat="42.826143" lon="140.811481"><ele>1878.6</ele><time>2026-09-09T23:27:54Z</time></trkpt>
<trkpt lat="42.826049" lon="140.811436"><ele>1879.2</ele><time>2026-09-09T23:28:06Z</time></trkpt>
<trkpt lat="42.826103" lon="140.811442"><ele>1879.4</ele><time>2026-09-09T23:28:22Z</time></trkpt>
<trkpt lat="42.826089" lon="140.811490"><ele>1877.6</ele><time>2026-09-09T23:28:36Z</time></trkpt>
<trkpt lat="42.826080" lon="140.811422"><ele>1878.8</ele><time>2026-09-09T23:28:50Z</time></trkpt>
<trkpt lat="42.826021" lon="140.811389"><ele>1878.8</ele><time>2026-09-09T23:29:11Z</time></trkpt>
<trkpt lat="42.825776" lon="140.811352"><ele>1876.6</ele><time>2026-09-09T23:30:09Z</time></trkpt>
<trkpt lat="42.825783" lon="140.811286"><ele>1881.0</ele><time>2026-09-09T23:30:26Z</time></trkpt>
<trkpt lat="42.825720" lon="140.811301"><ele>1882.8</ele><time>2026-09-09T23:30:38Z</time></trkpt>
<trkpt lat="42.825615" lon="140.811180"><ele>1884.2</ele><time>2026-09-09T23:30:58Z</time></trkpt>
<trkpt lat="42.825596" lon="140.810823"><ele>1885.2</ele><time>2026-09-09T23:31:49Z</time></trkpt>
<trkpt lat="42.825323" lon="140.810840"><ele>1882.4</ele><time>2026-09-09T23:32:38Z</time></trkpt>
<trkpt lat="42.825303" lon="140.810724"><ele>1882.2</ele><time>2026-09-09T23:33:27Z</time></trkpt>
<trkpt lat="42.825196" lon="140.810575"><ele>1884.8</ele><time>2026-09-09T23:34:12Z</time></trkpt>
<trkpt lat="42.825005" lon="140.810321"><ele>1884.6</ele><time>2026-09-09T23:34:55Z</time></trkpt>
<trkpt lat="42.824930" lon="140.810308"><ele>1883.0</ele><time>2026-09-09T23:35:16Z</time></trkpt>
<trkpt lat="42.824861" lon="140.810177"><ele>1883.4</ele><time>2026-09-09T23:35:31Z</time></trkpt>
<trkpt lat="42.824826" lon="140.809956"><ele>1885.4</ele><time>2026-09-09T23:36:01Z</time></trkpt>
<trkpt lat="42.824789" lon="140.809996"><ele>1882.2</ele><time>2026-09-09T23:36:20Z</time></trkpt>
<trkpt lat="42.824715" lon="140.809970"><ele>1879.2</ele><time>2026-09-09T23:36:35Z</time></trkpt>
<trkpt lat="42.824603" lon="140.809497"><ele>1879.8</ele><time>2026-09-09T23:38:12Z</time></trkpt>
<trkpt lat="42.824657" lon="140.809401"><ele>1880.8</ele><time>2026-09-09T23:38:26Z</time></trkpt>
<trkpt lat="42.824611" lon="140.809244"><ele>1876.0</ele><time>2026-09-09T23:38:58Z</time></trkpt>
<trkpt lat="42.824623" lon="140.809200"><ele>1875.8</ele><time>2026-09-09T23:39:10Z</time></trkpt>
<trkpt lat="42.824665" lon="140.809215"><ele>1877.0</ele><time>2026-09-09T23:39:21Z</time></trkpt>
<trkpt lat="42.824479" lon="140.809141"><ele>1873.4</ele><time>2026-09-09T23:40:04Z</time></trkpt>
<trkpt lat="42.824430" lon="140.808907"><ele>1871.4</ele><time>2026-09-09T23:40:28Z</time></trkpt>
<trkpt lat="42.824489" lon="140.808458"><ele>1876.2</ele><time>2026-09-09T23:41:30Z</time></trkpt>
<trkpt lat="42.824440" lon="140.808416"><ele>1874.2</ele><time>2026-09-09T23:41:54Z</time></trkpt>
<trkpt lat="42.824394" lon="140.808217"><ele>1870.0</ele><time>2026-09-09T23:42:53Z</time></trkpt>
<trkpt lat="42.824355" lon="140.808208"><ele>1868.6</ele><time>2026-09-09T23:43:10Z</time></trkpt>
<trkpt lat="42.824405" lon="140.808130"><ele>1867.0</ele><time>2026-09-09T23:43:23Z</time></trkpt>
<trkpt lat="42.824334" lon="140.807883"><ele>1863.6</ele><time>2026-09-09T23:43:58Z</time></trkpt>
<trkpt lat="42.824378" lon="140.807830"><ele>1865.8</ele><time>2026-09-09T23:44:08Z</time></trkpt>
<trkpt lat="42.824389" lon="140.807866"><ele>1867.2</ele><time>2026-09-09T23:44:15Z</time></trkpt>
<trkpt lat="42.824305" lon="140.807822"><ele>1867.0</ele><time>2026-09-09T23:44:38Z</time></trkpt>
<trkpt lat="42.824247" lon="140.807718"><ele>1861.8</ele><time>2026-09-09T23:45:22Z</time></trkpt>
<trkpt lat="42.824332" lon="140.807661"><ele>1859.0</ele><time>2026-09-09T23:45:57Z</time></trkpt>
<trkpt lat="42.824263" lon="140.807596"><ele>1854.4</ele><time>2026-09-09T23:46:24Z</time></trkpt>
<trkpt lat="42.824299" lon="140.807454"><ele>1849.2</ele><time>2026-09-09T23:46:45Z</time></trkpt>
<trkpt lat="42.824229" lon="140.807376"><ele>1846.8</ele><time>2026-09-09T23:47:04Z</time></trkpt>
<trkpt lat="42.824246" lon="140.807265"><ele>1847.8</ele><time>2026-09-09T23:47:17Z</time></trkpt>
<trkpt lat="42.824293" lon="140.807223"><ele>1851.0</ele><time>2026-09-09T23:47:24Z</time></trkpt>
<trkpt lat="42.824235" lon="140.807244"><ele>1847.0</ele><time>2026-09-09T23:48:19Z</time></trkpt>
<trkpt lat="42.824301" lon="140.807213"><ele>1850.8</ele><time>2026-09-09T23:48:34Z</time></trkpt>
<trkpt lat="42.824195" lon="140.807131"><ele>1852.4</ele><time>2026-09-09T23:49:02Z</time></trkpt>
<trkpt lat="42.824217" lon="140.807075"><ele>1849.2</ele><time>2026-09-09T23:49:29Z</time></trkpt>
<trkpt lat="42.824159" lon="140.806974"><ele>1849.6</ele><time>2026-09-09T23:49:42Z</time></trkpt>
<trkpt lat="42.824201" lon="140.806715"><ele>1846.8</ele><time>2026-09-09T23:50:12Z</time></trkpt>
<trkpt lat="42.824223" lon="140.806737"><ele>1846.8</ele><time>2026-09-09T23:50:36Z</time></trkpt>
<trkpt lat="42.824191" lon="140.806722"><ele>1847.0</ele><time>2026-09-09T23:51:01Z</time></trkpt>
<trkpt lat="42.824226" lon="140.806731"><ele>1847.6</ele><time>2026-09-09T23:51:21Z</time></trkpt>
<trkpt lat="42.824052" lon="140.806032"><ele>1843.2</ele><time>2026-09-09T23:53:04Z</time></trkpt>
<trkpt lat="42.824087" lon="140.805832"><ele>1838.2</ele><time>2026-09-09T23:53:28Z</time></trkpt>
<trkpt lat="42.824184" lon="140.805632"><ele>1838.2</ele><time>2026-09-09T23:53:58Z</time></trkpt>
<trkpt lat="42.824114" lon="140.805467"><ele>1839.8</ele><time>2026-09-09T23:54:17Z</time></trkpt>
<trkpt lat="42.824130" lon="140.805202"><ele>1838.6</ele><time>2026-09-09T23:54:43Z</time></trkpt>
<trkpt lat="42.824224" lon="140.805001"><ele>1836.2</ele><time>2026-09-09T23:55:00Z</time></trkpt>
<trkpt lat="42.824311" lon="140.804479"><ele>1840.8</ele><time>2026-09-09T23:55:50Z</time></trkpt>
<trkpt lat="42.824383" lon="140.804429"><ele>1840.0</ele><time>2026-09-09T23:56:04Z</time></trkpt>
<trkpt lat="42.824460" lon="140.804281"><ele>1835.2</ele><time>2026-09-09T23:56:23Z</time></trkpt>
<trkpt lat="42.824626" lon="140.804199"><ele>1827.0</ele><time>2026-09-09T23:56:57Z</time></trkpt>
<trkpt lat="42.824734" lon="140.804206"><ele>1822.2</ele><time>2026-09-09T23:57:17Z</time></trkpt>
<trkpt lat="42.825116" lon="140.803869"><ele>1807.2</ele><time>2026-09-09T23:58:34Z</time></trkpt>
<trkpt lat="42.825333" lon="140.803795"><ele>1799.2</ele><time>2026-09-09T23:59:11Z</time></trkpt>
<trkpt lat="42.825418" lon="140.803646"><ele>1795.0</ele><time>2026-09-09T23:59:32Z</time></trkpt>
<trkpt lat="42.825512" lon="140.803632"><ele>1794.4</ele><time>2026-09-09T23:59:48Z</time></trkpt>
<trkpt lat="42.825620" lon="140.803387"><ele>1790.6</ele><time>2026-09-10T00:00:06Z</time></trkpt>
<trkpt lat="42.825723" lon="140.803381"><ele>1791.2</ele><time>2026-09-10T00:00:20Z</time></trkpt>
<trkpt lat="42.825846" lon="140.803220"><ele>1791.2</ele><time>2026-09-10T00:01:28Z</time></trkpt>
<trkpt lat="42.825811" lon="140.803183"><ele>1790.4</ele><time>2026-09-10T00:01:34Z</time></trkpt>
<trkpt lat="42.825616" lon="140.803243"><ele>1785.2</ele><time>2026-09-10T00:01:59Z</time></trkpt>
<trkpt lat="42.825321" lon="140.803234"><ele>1775.8</ele><time>2026-09-10T00:02:39Z</time></trkpt>
<trkpt lat="42.825162" lon="140.803073"><ele>1769.2</ele><time>2026-09-10T00:03:04Z</time></trkpt>
<trkpt lat="42.825196" lon="140.802956"><ele>1766.0</ele><time>2026-09-10T00:03:19Z</time></trkpt>
<trkpt lat="42.825397" lon="140.802874"><ele>1760.2</ele><time>2026-09-10T00:03:48Z</time></trkpt>
<trkpt lat="42.825452" lon="140.802490"><ele>1750.4</ele><time>2026-09-10T00:04:38Z</time></trkpt>
<trkpt lat="42.825519" lon="140.802413"><ele>1747.8</ele><time>2026-09-10T00:04:49Z</time></trkpt>
<trkpt lat="42.825529" lon="140.802221"><ele>1742.6</ele><time>2026-09-10T00:05:13Z</time></trkpt>
<trkpt lat="42.825420" lon="140.802248"><ele>1739.4</ele><time>2026-09-10T00:05:27Z</time></trkpt>
<trkpt lat="42.825406" lon="140.802212"><ele>1738.2</ele><time>2026-09-10T00:05:34Z</time></trkpt>
<trkpt lat="42.825375" lon="140.802252"><ele>1737.2</ele><time>2026-09-10T00:05:42Z</time></trkpt>
<trkpt lat="42.825241" lon="140.802151"><ele>1735.0</ele><time>2026-09-10T00:06:07Z</time></trkpt>
<trkpt lat="42.825175" lon="140.802020"><ele>1732.8</ele><time>2026-09-10T00:06:19Z</time></trkpt>
<trkpt lat="42.825180" lon="140.801933"><ele>1730.6</ele><time>2026-09-10T00:06:27Z</time></trkpt>
<trkpt lat="42.825039" lon="140.801791"><ele>1724.0</ele><time>2026-09-10T00:06:51Z</time></trkpt>
<trkpt lat="42.824938" lon="140.801598"><ele>1717.8</ele><time>2026-09-10T00:07:17Z</time></trkpt>
<trkpt lat="42.824944" lon="140.801470"><ele>1714.8</ele><time>2026-09-10T00:07:44Z</time></trkpt>
<trkpt lat="42.824651" lon="140.801212"><ele>1704.8</ele><time>2026-09-10T00:08:25Z</time></trkpt>
<trkpt lat="42.824338" lon="140.801064"><ele>1698.0</ele><time>2026-09-10T00:08:56Z</time></trkpt>
<trkpt lat="42.824267" lon="140.800969"><ele>1695.2</ele><time>2026-09-10T00:09:07Z</time></trkpt>
<trkpt lat="42.824090" lon="140.800499"><ele>1687.0</ele><time>2026-09-10T00:10:02Z</time></trkpt>
<trkpt lat="42.823808" lon="140.800031"><ele>1687.4</ele><time>2026-09-10T00:10:59Z</time></trkpt>
<trkpt lat="42.823832" lon="140.800008"><ele>1686.8</ele><time>2026-09-10T00:11:15Z</time></trkpt>
<trkpt lat="42.823830" lon="140.800081"><ele>1686.8</ele><time>2026-09-10T00:11:44Z</time></trkpt>
<trkpt lat="42.823802" lon="140.800060"><ele>1687.0</ele><time>2026-09-10T00:11:57Z</time></trkpt>
<trkpt lat="42.823878" lon="140.799972"><ele>1687.6</ele><time>2026-09-10T00:13:12Z</time></trkpt>
<trkpt lat="42.823835" lon="140.799804"><ele>1686.0</ele><time>2026-09-10T00:13:25Z</time></trkpt>
<trkpt lat="42.823832" lon="140.799473"><ele>1680.8</ele><time>2026-09-10T00:13:58Z</time></trkpt>
<trkpt lat="42.823756" lon="140.799171"><ele>1679.0</ele><time>2026-09-10T00:14:20Z</time></trkpt>
<trkpt lat="42.823928" lon="140.799011"><ele>1672.6</ele><time>2026-09-10T00:14:45Z</time></trkpt>
<trkpt lat="42.823920" lon="140.798876"><ele>1670.2</ele><time>2026-09-10T00:15:03Z</time></trkpt>
<trkpt lat="42.823977" lon="140.798924"><ele>1668.4</ele><time>2026-09-10T00:15:20Z</time></trkpt>
<trkpt lat="42.824024" lon="140.798649"><ele>1659.4</ele><time>2026-09-10T00:16:00Z</time></trkpt>
<trkpt lat="42.823962" lon="140.798566"><ele>1656.0</ele><time>2026-09-10T00:16:15Z</time></trkpt>
<trkpt lat="42.823989" lon="140.798448"><ele>1650.6</ele><time>2026-09-10T00:16:48Z</time></trkpt>
<trkpt lat="42.823866" lon="140.798293"><ele>1644.0</ele><time>2026-09-10T00:17:15Z</time></trkpt>
<trkpt lat="42.823798" lon="140.798317"><ele>1643.0</ele><time>2026-09-10T00:17:20Z</time></trkpt>
<trkpt lat="42.823487" lon="140.798197"><ele>1637.6</ele><time>2026-09-10T00:18:24Z</time></trkpt>
<trkpt lat="42.823188" lon="140.798176"><ele>1627.8</ele><time>2026-09-10T00:19:18Z</time></trkpt>
<trkpt lat="42.823040" lon="140.798428"><ele>1621.4</ele><time>2026-09-10T00:19:57Z</time></trkpt>
<trkpt lat="42.822918" lon="140.798513"><ele>1614.8</ele><time>2026-09-10T00:20:31Z</time></trkpt>
<trkpt lat="42.822849" lon="140.798709"><ele>1610.0</ele><time>2026-09-10T00:21:00Z</time></trkpt>
<trkpt lat="42.822820" lon="140.799091"><ele>1608.2</ele><time>2026-09-10T00:21:27Z</time></trkpt>
<trkpt lat="42.822745" lon="140.799278"><ele>1607.6</ele><time>2026-09-10T00:21:40Z</time></trkpt>
<trkpt lat="42.822746" lon="140.799424"><ele>1609.8</ele><time>2026-09-10T00:21:54Z</time></trkpt>
<trkpt lat="42.822642" lon="140.799700"><ele>1609.8</ele><time>2026-09-10T00:22:19Z</time></trkpt>
<trkpt lat="42.822629" lon="140.799924"><ele>1613.4</ele><time>2026-09-10T00:22:40Z</time></trkpt>
<trkpt lat="42.822460" lon="140.800472"><ele>1616.8</ele><time>2026-09-10T00:23:32Z</time></trkpt>
<trkpt lat="42.822099" lon="140.801141"><ele>1614.0</ele><time>2026-09-10T00:24:43Z</time></trkpt>
<trkpt lat="42.822031" lon="140.801434"><ele>1613.0</ele><time>2026-09-10T00:25:11Z</time></trkpt>
<trkpt lat="42.821797" lon="140.801850"><ele>1610.2</ele><time>2026-09-10T00:26:00Z</time></trkpt>
<trkpt lat="42.821638" lon="140.801970"><ele>1605.6</ele><time>2026-09-10T00:26:29Z</time></trkpt>
<trkpt lat="42.821530" lon="140.801991"><ele>1600.6</ele><time>2026-09-10T00:26:58Z</time></trkpt>
<trkpt lat="42.821549" lon="140.802051"><ele>1600.8</ele><time>2026-09-10T00:27:15Z</time></trkpt>
<trkpt lat="42.821456" lon="140.802003"><ele>1597.8</ele><time>2026-09-10T00:27:28Z</time></trkpt>
<trkpt lat="42.821124" lon="140.802103"><ele>1589.2</ele><time>2026-09-10T00:28:03Z</time></trkpt>
<trkpt lat="42.821116" lon="140.802335"><ele>1587.8</ele><time>2026-09-10T00:28:23Z</time></trkpt>
<trkpt lat="42.820983" lon="140.802582"><ele>1587.0</ele><time>2026-09-10T00:28:48Z</time></trkpt>
<trkpt lat="42.820728" lon="140.802674"><ele>1580.4</ele><time>2026-09-10T00:29:23Z</time></trkpt>
<trkpt lat="42.820637" lon="140.802771"><ele>1576.8</ele><time>2026-09-10T00:29:39Z</time></trkpt>
<trkpt lat="42.820546" lon="140.802768"><ele>1571.4</ele><time>2026-09-10T00:30:03Z</time></trkpt>
<trkpt lat="42.820336" lon="140.802879"><ele>1561.4</ele><time>2026-09-10T00:30:49Z</time></trkpt>
<trkpt lat="42.820358" lon="140.802618"><ele>1552.2</ele><time>2026-09-10T00:31:28Z</time></trkpt>
<trkpt lat="42.820265" lon="140.802350"><ele>1545.4</ele><time>2026-09-10T00:32:00Z</time></trkpt>
<trkpt lat="42.820309" lon="140.802173"><ele>1540.0</ele><time>2026-09-10T00:32:23Z</time></trkpt>
<trkpt lat="42.820366" lon="140.802100"><ele>1532.8</ele><time>2026-09-10T00:32:46Z</time></trkpt>
<trkpt lat="42.820195" lon="140.802022"><ele>1527.4</ele><time>2026-09-10T00:33:12Z</time></trkpt>
<trkpt lat="42.819989" lon="140.802156"><ele>1515.4</ele><time>2026-09-10T00:34:10Z</time></trkpt>
<trkpt lat="42.820012" lon="140.802024"><ele>1513.0</ele><time>2026-09-10T00:34:19Z</time></trkpt>
<trkpt lat="42.819970" lon="140.801884"><ele>1508.2</ele><time>2026-09-10T00:34:34Z</time></trkpt>
<trkpt lat="42.819797" lon="140.802019"><ele>1500.6</ele><time>2026-09-10T00:35:09Z</time></trkpt>
<trkpt lat="42.819803" lon="140.801881"><ele>1497.2</ele><time>2026-09-10T00:35:27Z</time></trkpt>
<trkpt lat="42.819756" lon="140.801850"><ele>1495.8</ele><time>2026-09-10T00:35:36Z</time></trkpt>
<trkpt lat="42.819777" lon="140.801719"><ele>1493.0</ele><time>2026-09-10T00:35:50Z</time></trkpt>
<trkpt lat="42.819653" lon="140.801752"><ele>1490.2</ele><time>2026-09-10T00:36:22Z</time></trkpt>
<trkpt lat="42.819719" lon="140.801760"><ele>1490.2</ele><time>2026-09-10T00:36:36Z</time></trkpt>
<trkpt lat="42.819712" lon="140.801848"><ele>1488.6</ele><time>2026-09-10T00:37:04Z</time></trkpt>
<trkpt lat="42.819542" lon="140.801974"><ele>1482.0</ele><time>2026-09-10T00:37:40Z</time></trkpt>
<trkpt lat="42.819419" lon="140.801998"><ele>1477.6</ele><time>2026-09-10T00:38:05Z</time></trkpt>
<trkpt lat="42.819377" lon="140.802122"><ele>1474.0</ele><time>2026-09-10T00:38:20Z</time></trkpt>
<trkpt lat="42.819280" lon="140.802099"><ele>1470.4</ele><time>2026-09-10T00:38:32Z</time></trkpt>
<trkpt lat="42.819232" lon="140.802263"><ele>1466.8</ele><time>2026-09-10T00:38:43Z</time></trkpt>
<trkpt lat="42.819265" lon="140.802338"><ele>1466.4</ele><time>2026-09-10T00:39:10Z</time></trkpt>
<trkpt lat="42.819216" lon="140.802338"><ele>1466.6</ele><time>2026-09-10T00:39:29Z</time></trkpt>
<trkpt lat="42.819260" lon="140.802288"><ele>1468.8</ele><time>2026-09-10T00:41:30Z</time></trkpt>
<trkpt lat="42.819242" lon="140.802323"><ele>1468.6</ele><time>2026-09-10T00:41:52Z</time></trkpt>
<trkpt lat="42.819276" lon="140.802363"><ele>1469.0</ele><time>2026-09-10T00:42:21Z</time></trkpt>
<trkpt lat="42.819211" lon="140.802289"><ele>1469.8</ele><time>2026-09-10T00:43:04Z</time></trkpt>
<trkpt lat="42.819239" lon="140.802332"><ele>1470.6</ele><time>2026-09-10T00:43:45Z</time></trkpt>
<trkpt lat="42.819185" lon="140.802329"><ele>1470.2</ele><time>2026-09-10T00:44:00Z</time></trkpt>
<trkpt lat="42.819225" lon="140.802364"><ele>1469.6</ele><time>2026-09-10T00:44:22Z</time></trkpt>
<trkpt lat="42.819128" lon="140.802382"><ele>1469.0</ele><time>2026-09-10T00:44:35Z</time></trkpt>
<trkpt lat="42.818978" lon="140.802524"><ele>1461.6</ele><time>2026-09-10T00:44:58Z</time></trkpt>
<trkpt lat="42.818997" lon="140.802408"><ele>1457.8</ele><time>2026-09-10T00:45:09Z</time></trkpt>
<trkpt lat="42.818948" lon="140.802186"><ele>1453.6</ele><time>2026-09-10T00:45:24Z</time></trkpt>
<trkpt lat="42.818749" lon="140.802570"><ele>1445.4</ele><time>2026-09-10T00:46:08Z</time></trkpt>
<trkpt lat="42.818635" lon="140.802658"><ele>1440.8</ele><time>2026-09-10T00:46:32Z</time></trkpt>
<trkpt lat="42.818538" lon="140.802397"><ele>1432.4</ele><time>2026-09-10T00:47:09Z</time></trkpt>
<trkpt lat="42.818580" lon="140.801847"><ele>1418.8</ele><time>2026-09-10T00:48:12Z</time></trkpt>
<trkpt lat="42.818262" lon="140.802048"><ele>1405.6</ele><time>2026-09-10T00:48:55Z</time></trkpt>
<trkpt lat="42.818145" lon="140.802198"><ele>1401.2</ele><time>2026-09-10T00:49:11Z</time></trkpt>
<trkpt lat="42.818094" lon="140.802195"><ele>1398.0</ele><time>2026-09-10T00:49:19Z</time></trkpt>
<trkpt lat="42.818083" lon="140.801834"><ele>1390.4</ele><time>2026-09-10T00:49:52Z</time></trkpt>
<trkpt lat="42.818138" lon="140.801785"><ele>1389.6</ele><time>2026-09-10T00:50:04Z</time></trkpt>
<trkpt lat="42.818198" lon="140.801583"><ele>1389.8</ele><time>2026-09-10T00:50:27Z</time></trkpt>
<trkpt lat="42.818307" lon="140.801542"><ele>1388.6</ele><time>2026-09-10T00:50:40Z</time></trkpt>
<trkpt lat="42.818300" lon="140.801457"><ele>1386.4</ele><time>2026-09-10T00:50:50Z</time></trkpt>
<trkpt lat="42.817959" lon="140.801461"><ele>1372.6</ele><time>2026-09-10T00:51:39Z</time></trkpt>
<trkpt lat="42.817674" lon="140.801691"><ele>1365.8</ele><time>2026-09-10T00:52:14Z</time></trkpt>
<trkpt lat="42.817471" lon="140.801719"><ele>1360.2</ele><time>2026-09-10T00:52:43Z</time></trkpt>
<trkpt lat="42.817405" lon="140.801675"><ele>1358.2</ele><time>2026-09-10T00:53:02Z</time></trkpt>
<trkpt lat="42.817324" lon="140.801734"><ele>1355.0</ele><time>2026-09-10T00:53:20Z</time></trkpt>
<trkpt lat="42.817242" lon="140.801622"><ele>1350.0</ele><time>2026-09-10T00:53:46Z</time></trkpt>
<trkpt lat="42.817209" lon="140.801687"><ele>1348.8</ele><time>2026-09-10T00:53:57Z</time></trkpt>
<trkpt lat="42.817047" lon="140.801569"><ele>1340.8</ele><time>2026-09-10T00:54:23Z</time></trkpt>
<trkpt lat="42.817008" lon="140.801486"><ele>1336.2</ele><time>2026-09-10T00:54:40Z</time></trkpt>
<trkpt lat="42.816781" lon="140.801354"><ele>1327.2</ele><time>2026-09-10T00:55:19Z</time></trkpt>
<trkpt lat="42.816694" lon="140.801373"><ele>1324.4</ele><time>2026-09-10T00:55:31Z</time></trkpt>
<trkpt lat="42.816644" lon="140.801510"><ele>1322.4</ele><time>2026-09-10T00:55:43Z</time></trkpt>
<trkpt lat="42.816487" lon="140.801527"><ele>1315.6</ele><time>2026-09-10T00:56:11Z</time></trkpt>
<trkpt lat="42.816573" lon="140.801754"><ele>1316.0</ele><time>2026-09-10T00:56:57Z</time></trkpt>
<trkpt lat="42.816525" lon="140.802148"><ele>1311.4</ele><time>2026-09-10T00:57:45Z</time></trkpt>
<trkpt lat="42.816537" lon="140.802514"><ele>1305.6</ele><time>2026-09-10T00:58:14Z</time></trkpt>
<trkpt lat="42.816330" lon="140.802723"><ele>1300.0</ele><time>2026-09-10T00:58:40Z</time></trkpt>
<trkpt lat="42.816358" lon="140.802718"><ele>1299.8</ele><time>2026-09-10T00:58:42Z</time></trkpt>
<trkpt lat="42.816210" lon="140.802952"><ele>1292.0</ele><time>2026-09-10T00:59:14Z</time></trkpt>
<trkpt lat="42.816145" lon="140.802459"><ele>1283.8</ele><time>2026-09-10T00:59:53Z</time></trkpt>
<trkpt lat="42.816103" lon="140.802435"><ele>1282.4</ele><time>2026-09-10T01:00:01Z</time></trkpt>
<trkpt lat="42.815993" lon="140.802771"><ele>1278.4</ele><time>2026-09-10T01:00:31Z</time></trkpt>
<trkpt lat="42.815840" lon="140.802920"><ele>1270.8</ele><time>2026-09-10T01:01:20Z</time></trkpt>
<trkpt lat="42.815728" lon="140.801959"><ele>1256.0</ele><time>2026-09-10T01:02:38Z</time></trkpt>
<trkpt lat="42.815662" lon="140.802017"><ele>1252.4</ele><time>2026-09-10T01:02:50Z</time></trkpt>
<trkpt lat="42.815601" lon="140.802222"><ele>1249.0</ele><time>2026-09-10T01:03:02Z</time></trkpt>
<trkpt lat="42.815466" lon="140.802418"><ele>1245.0</ele><time>2026-09-10T01:03:17Z</time></trkpt>
<trkpt lat="42.815300" lon="140.802896"><ele>1233.6</ele><time>2026-09-10T01:04:00Z</time></trkpt>
<trkpt lat="42.815226" lon="140.802891"><ele>1231.2</ele><time>2026-09-10T01:04:09Z</time></trkpt>
<trkpt lat="42.815150" lon="140.802571"><ele>1226.8</ele><time>2026-09-10T01:04:28Z</time></trkpt>
<trkpt lat="42.815095" lon="140.802542"><ele>1223.2</ele><time>2026-09-10T01:04:37Z</time></trkpt>
<trkpt lat="42.815070" lon="140.802101"><ele>1217.2</ele><time>2026-09-10T01:05:17Z</time></trkpt>
<trkpt lat="42.814865" lon="140.802413"><ele>1210.4</ele><time>2026-09-10T01:05:50Z</time></trkpt>
<trkpt lat="42.814861" lon="140.802546"><ele>1207.0</ele><time>2026-09-10T01:06:02Z</time></trkpt>
<trkpt lat="42.814757" lon="140.802039"><ele>1198.0</ele><time>2026-09-10T01:06:44Z</time></trkpt>
<trkpt lat="42.814606" lon="140.802232"><ele>1193.4</ele><time>2026-09-10T01:07:00Z</time></trkpt>
<trkpt lat="42.814577" lon="140.802458"><ele>1185.8</ele><time>2026-09-10T01:07:43Z</time></trkpt>
<trkpt lat="42.814393" lon="140.802682"><ele>1178.4</ele><time>2026-09-10T01:08:16Z</time></trkpt>
<trkpt lat="42.814387" lon="140.802764"><ele>1176.6</ele><time>2026-09-10T01:08:26Z</time></trkpt>
<trkpt lat="42.814347" lon="140.802763"><ele>1175.2</ele><time>2026-09-10T01:08:32Z</time></trkpt>
<trkpt lat="42.814103" lon="140.802313"><ele>1161.8</ele><time>2026-09-10T01:09:13Z</time></trkpt>
<trkpt lat="42.814103" lon="140.802102"><ele>1157.2</ele><time>2026-09-10T01:09:35Z</time></trkpt>
<trkpt lat="42.814079" lon="140.802142"><ele>1157.4</ele><time>2026-09-10T01:10:00Z</time></trkpt>
<trkpt lat="42.814094" lon="140.802069"><ele>1157.2</ele><time>2026-09-10T01:10:18Z</time></trkpt>
<trkpt lat="42.814059" lon="140.802027"><ele>1157.2</ele><time>2026-09-10T01:10:38Z</time></trkpt>
<trkpt lat="42.814050" lon="140.802092"><ele>1157.2</ele><time>2026-09-10T01:10:50Z</time></trkpt>
<trkpt lat="42.814104" lon="140.802081"><ele>1157.0</ele><time>2026-09-10T01:11:13Z</time></trkpt>
<trkpt lat="42.814085" lon="140.802132"><ele>1157.2</ele><time>2026-09-10T01:11:31Z</time></trkpt>
<trkpt lat="42.814060" lon="140.802085"><ele>1157.0</ele><time>2026-09-10T01:11:39Z</time></trkpt>
<trkpt lat="42.814086" lon="140.802066"><ele>1157.0</ele><time>2026-09-10T01:11:48Z</time></trkpt>
<trkpt lat="42.814097" lon="140.802225"><ele>1158.0</ele><time>2026-09-10T01:12:33Z</time></trkpt>
<trkpt lat="42.813968" lon="140.801974"><ele>1153.4</ele><time>2026-09-10T01:13:17Z</time></trkpt>
<trkpt lat="42.813931" lon="140.801823"><ele>1150.2</ele><time>2026-09-10T01:13:32Z</time></trkpt>
<trkpt lat="42.813957" lon="140.801712"><ele>1145.4</ele><time>2026-09-10T01:13:49Z</time></trkpt>
<trkpt lat="42.813862" lon="140.801599"><ele>1139.6</ele><time>2026-09-10T01:14:14Z</time></trkpt>
<trkpt lat="42.813774" lon="140.801233"><ele>1127.0</ele><time>2026-09-10T01:14:59Z</time></trkpt>
<trkpt lat="42.813654" lon="140.800938"><ele>1116.8</ele><time>2026-09-10T01:15:36Z</time></trkpt>
<trkpt lat="42.813538" lon="140.800948"><ele>1110.4</ele><time>2026-09-10T01:15:55Z</time></trkpt>
<trkpt lat="42.813302" lon="140.801188"><ele>1103.8</ele><time>2026-09-10T01:16:14Z</time></trkpt>
<trkpt lat="42.813218" lon="140.801203"><ele>1101.0</ele><time>2026-09-10T01:16:26Z</time></trkpt>
<trkpt lat="42.813031" lon="140.801655"><ele>1092.4</ele><time>2026-09-10T01:16:54Z</time></trkpt>
<trkpt lat="42.812968" lon="140.801526"><ele>1088.2</ele><time>2026-09-10T01:17:11Z</time></trkpt>
<trkpt lat="42.812959" lon="140.801386"><ele>1084.4</ele><time>2026-09-10T01:17:25Z</time></trkpt>
<trkpt lat="42.812879" lon="140.801259"><ele>1082.4</ele><time>2026-09-10T01:17:33Z</time></trkpt>
<trkpt lat="42.812760" lon="140.800737"><ele>1069.0</ele><time>2026-09-10T01:18:14Z</time></trkpt>
<trkpt lat="42.812771" lon="140.800613"><ele>1064.8</ele><time>2026-09-10T01:18:30Z</time></trkpt>
<trkpt lat="42.812566" lon="140.800470"><ele>1057.0</ele><time>2026-09-10T01:18:51Z</time></trkpt>
<trkpt lat="42.812509" lon="140.800337"><ele>1052.6</ele><time>2026-09-10T01:19:15Z</time></trkpt>
<trkpt lat="42.812357" lon="140.800688"><ele>1042.0</ele><time>2026-09-10T01:19:51Z</time></trkpt>
<trkpt lat="42.812211" lon="140.800800"><ele>1035.4</ele><time>2026-09-10T01:20:10Z</time></trkpt>
<trkpt lat="42.812122" lon="140.801025"><ele>1032.2</ele><time>2026-09-10T01:20:19Z</time></trkpt>
<trkpt lat="42.812048" lon="140.801054"><ele>1030.2</ele><time>2026-09-10T01:20:32Z</time></trkpt>
<trkpt lat="42.811807" lon="140.801062"><ele>1023.2</ele><time>2026-09-10T01:20:57Z</time></trkpt>
<trkpt lat="42.811839" lon="140.800687"><ele>1014.2</ele><time>2026-09-10T01:21:35Z</time></trkpt>
<trkpt lat="42.811800" lon="140.800621"><ele>1011.8</ele><time>2026-09-10T01:21:44Z</time></trkpt>
<trkpt lat="42.811904" lon="140.800309"><ele>1012.2</ele><time>2026-09-10T01:22:06Z</time></trkpt>
<trkpt lat="42.811803" lon="140.800149"><ele>1006.2</ele><time>2026-09-10T01:22:25Z</time></trkpt>
<trkpt lat="42.811810" lon="140.800101"><ele>1001.8</ele><time>2026-09-10T01:22:41Z</time></trkpt>
<trkpt lat="42.811734" lon="140.800197"><ele>998.2</ele><time>2026-09-10T01:22:58Z</time></trkpt>
<trkpt lat="42.811672" lon="140.800088"><ele>994.0</ele><time>2026-09-10T01:23:12Z</time></trkpt>
<trkpt lat="42.811515" lon="140.800256"><ele>990.6</ele><time>2026-09-10T01:23:22Z</time></trkpt>
<trkpt lat="42.811306" lon="140.800605"><ele>982.8</ele><time>2026-09-10T01:23:47Z</time></trkpt>
<trkpt lat="42.810940" lon="140.800751"><ele>970.2</ele><time>2026-09-10T01:24:31Z</time></trkpt>
<trkpt lat="42.810827" lon="140.800901"><ele>967.8</ele><time>2026-09-10T01:24:41Z</time></trkpt>
<trkpt lat="42.810837" lon="140.801001"><ele>966.8</ele><time>2026-09-10T01:24:49Z</time></trkpt>
<trkpt lat="42.810705" lon="140.800936"><ele>959.6</ele><time>2026-09-10T01:25:25Z</time></trkpt>
<trkpt lat="42.810742" lon="140.800853"><ele>955.6</ele><time>2026-09-10T01:25:41Z</time></trkpt>
<trkpt lat="42.810695" lon="140.800685"><ele>952.2</ele><time>2026-09-10T01:25:51Z</time></trkpt>
<trkpt lat="42.810702" lon="140.799110"><ele>923.8</ele><time>2026-09-10T01:27:26Z</time></trkpt>
<trkpt lat="42.810615" lon="140.798967"><ele>917.4</ele><time>2026-09-10T01:27:46Z</time></trkpt>
<trkpt lat="42.810553" lon="140.798691"><ele>910.4</ele><time>2026-09-10T01:28:04Z</time></trkpt>
<trkpt lat="42.810472" lon="140.798599"><ele>906.8</ele><time>2026-09-10T01:28:16Z</time></trkpt>
<trkpt lat="42.810451" lon="140.798348"><ele>903.0</ele><time>2026-09-10T01:28:31Z</time></trkpt>
<trkpt lat="42.810373" lon="140.798147"><ele>897.8</ele><time>2026-09-10T01:28:43Z</time></trkpt>
<trkpt lat="42.810398" lon="140.798007"><ele>898.4</ele><time>2026-09-10T01:28:53Z</time></trkpt>
<trkpt lat="42.810326" lon="140.798005"><ele>894.6</ele><time>2026-09-10T01:29:06Z</time></trkpt>
<trkpt lat="42.810220" lon="140.797907"><ele>891.0</ele><time>2026-09-10T01:29:22Z</time></trkpt>
<trkpt lat="42.810212" lon="140.797800"><ele>888.8</ele><time>2026-09-10T01:29:35Z</time></trkpt>
<trkpt lat="42.810074" lon="140.797734"><ele>884.4</ele><time>2026-09-10T01:29:53Z</time></trkpt>
<trkpt lat="42.810012" lon="140.797592"><ele>882.0</ele><time>2026-09-10T01:30:04Z</time></trkpt>
<trkpt lat="42.809792" lon="140.797384"><ele>875.2</ele><time>2026-09-10T01:30:30Z</time></trkpt>
<trkpt lat="42.809781" lon="140.797292"><ele>873.0</ele><time>2026-09-10T01:30:42Z</time></trkpt>
<trkpt lat="42.809627" lon="140.797081"><ele>868.6</ele><time>2026-09-10T01:31:03Z</time></trkpt>
<trkpt lat="42.809324" lon="140.796810"><ele>858.0</ele><time>2026-09-10T01:31:47Z</time></trkpt>
<trkpt lat="42.808934" lon="140.796684"><ele>844.4</ele><time>2026-09-10T01:32:30Z</time></trkpt>
<trkpt lat="42.808473" lon="140.796727"><ele>829.0</ele><time>2026-09-10T01:33:25Z</time></trkpt>
<trkpt lat="42.808280" lon="140.796671"><ele>822.6</ele><time>2026-09-10T01:33:50Z</time></trkpt>
<trkpt lat="42.808055" lon="140.796747"><ele>815.4</ele><time>2026-09-10T01:34:14Z</time></trkpt>
<trkpt lat="42.807854" lon="140.796743"><ele>809.8</ele><time>2026-09-10T01:34:34Z</time></trkpt>
<trkpt lat="42.807556" lon="140.796628"><ele>800.2</ele><time>2026-09-10T01:35:04Z</time></trkpt>
<trkpt lat="42.807456" lon="140.796673"><ele>797.0</ele><time>2026-09-10T01:35:19Z</time></trkpt>
<trkpt lat="42.807354" lon="140.796800"><ele>792.6</ele><time>2026-09-10T01:35:37Z</time></trkpt>
<trkpt lat="42.806651" lon="140.796637"><ele>775.2</ele><time>2026-09-10T01:36:39Z</time></trkpt>
<trkpt lat="42.806596" lon="140.796693"><ele>772.8</ele><time>2026-09-10T01:36:49Z</time></trkpt>
<trkpt lat="42.806527" lon="140.796661"><ele>770.4</ele><time>2026-09-10T01:37:00Z</time></trkpt>
<trkpt lat="42.806171" lon="140.796784"><ele>758.4</ele><time>2026-09-10T01:37:46Z</time></trkpt>
<trkpt lat="42.805784" lon="140.796785"><ele>749.2</ele><time>2026-09-10T01:38:25Z</time></trkpt>
<trkpt lat="42.805751" lon="140.796743"><ele>747.4</ele><time>2026-09-10T01:38:34Z</time></trkpt>
<trkpt lat="42.805788" lon="140.796462"><ele>742.2</ele><time>2026-09-10T01:39:05Z</time></trkpt>
<trkpt lat="42.805710" lon="140.796423"><ele>738.0</ele><time>2026-09-10T01:39:22Z</time></trkpt>
<trkpt lat="42.805664" lon="140.796136"><ele>736.8</ele><time>2026-09-10T01:39:46Z</time></trkpt>
<trkpt lat="42.805538" lon="140.796021"><ele>734.4</ele><time>2026-09-10T01:39:57Z</time></trkpt>
<trkpt lat="42.805611" lon="140.795911"><ele>731.8</ele><time>2026-09-10T01:40:10Z</time></trkpt>
<trkpt lat="42.805489" lon="140.795642"><ele>724.4</ele><time>2026-09-10T01:40:32Z</time></trkpt>
<trkpt lat="42.805494" lon="140.795566"><ele>723.8</ele><time>2026-09-10T01:40:37Z</time></trkpt>
<trkpt lat="42.805534" lon="140.795327"><ele>723.0</ele><time>2026-09-10T01:40:51Z</time></trkpt>
<trkpt lat="42.805671" lon="140.795073"><ele>718.2</ele><time>2026-09-10T01:41:14Z</time></trkpt>
<trkpt lat="42.805812" lon="140.794611"><ele>712.0</ele><time>2026-09-10T01:41:43Z</time></trkpt>
<trkpt lat="42.805997" lon="140.794330"><ele>705.4</ele><time>2026-09-10T01:42:15Z</time></trkpt>
<trkpt lat="42.806009" lon="140.794130"><ele>701.4</ele><time>2026-09-10T01:42:28Z</time></trkpt>
<trkpt lat="42.806089" lon="140.794014"><ele>699.6</ele><time>2026-09-10T01:42:49Z</time></trkpt>
<trkpt lat="42.806078" lon="140.794084"><ele>698.6</ele><time>2026-09-10T01:43:08Z</time></trkpt>
<trkpt lat="42.806100" lon="140.794061"><ele>698.8</ele><time>2026-09-10T01:43:36Z</time></trkpt>
<trkpt lat="42.806097" lon="140.793972"><ele>698.6</ele><time>2026-09-10T01:43:56Z</time></trkpt>
<trkpt lat="42.806037" lon="140.793995"><ele>699.0</ele><time>2026-09-10T01:44:10Z</time></trkpt>
<trkpt lat="42.806070" lon="140.794112"><ele>698.6</ele><time>2026-09-10T01:44:37Z</time></trkpt>
<trkpt lat="42.806017" lon="140.794085"><ele>698.8</ele><time>2026-09-10T01:44:44Z</time></trkpt>
<trkpt lat="42.806072" lon="140.794113"><ele>698.6</ele><time>2026-09-10T01:45:01Z</time></trkpt>
<trkpt lat="42.806006" lon="140.794077"><ele>698.8</ele><time>2026-09-10T01:45:24Z</time></trkpt>
<trkpt lat="42.806011" lon="140.794128"><ele>699.0</ele><time>2026-09-10T01:45:45Z</time></trkpt>
<trkpt lat="42.806047" lon="140.794066"><ele>699.0</ele><time>2026-09-10T01:46:09Z</time></trkpt>
<trkpt lat="42.806123" lon="140.794088"><ele>699.0</ele><time>2026-09-10T01:46:28Z</time></trkpt>
<trkpt lat="42.806094" lon="140.794140"><ele>699.2</ele><time>2026-09-10T01:46:40Z</time></trkpt>
<trkpt lat="42.806107" lon="140.794072"><ele>699.0</ele><time>2026-09-10T01:46:56Z</time></trkpt>
<trkpt lat="42.806072" lon="140.794117"><ele>699.8</ele><time>2026-09-10T01:47:08Z</time></trkpt>
<trkpt lat="42.806124" lon="140.794061"><ele>700.2</ele><time>2026-09-10T01:47:29Z</time></trkpt>
<trkpt lat="42.806086" lon="140.794033"><ele>700.4</ele><time>2026-09-10T01:47:49Z</time></trkpt>
<trkpt lat="42.806076" lon="140.794149"><ele>700.4</ele><time>2026-09-10T01:48:07Z</time></trkpt>
<trkpt lat="42.806033" lon="140.794145"><ele>700.4</ele><time>2026-09-10T01:48:15Z</time></trkpt>
<trkpt lat="42.806000" lon="140.794094"><ele>699.2</ele><time>2026-09-10T01:48:22Z</time></trkpt>
<trkpt lat="42.806021" lon="140.793988"><ele>697.2</ele><time>2026-09-10T01:48:36Z</time></trkpt>
<trkpt lat="42.805992" lon="140.793899"><ele>695.0</ele><time>2026-09-10T01:48:47Z</time></trkpt>
<trkpt lat="42.805787" lon="140.793736"><ele>686.4</ele><time>2026-09-10T01:49:21Z</time></trkpt>
<trkpt lat="42.805774" lon="140.793576"><ele>683.6</ele><time>2026-09-10T01:49:32Z</time></trkpt>
<trkpt lat="42.805700" lon="140.793442"><ele>680.2</ele><time>2026-09-10T01:49:45Z</time></trkpt>
<trkpt lat="42.805470" lon="140.793475"><ele>671.2</ele><time>2026-09-10T01:50:13Z</time></trkpt>
<trkpt lat="42.805376" lon="140.793439"><ele>668.8</ele><time>2026-09-10T01:50:22Z</time></trkpt>
<trkpt lat="42.805153" lon="140.793216"><ele>661.8</ele><time>2026-09-10T01:50:51Z</time></trkpt>
<trkpt lat="42.805021" lon="140.792911"><ele>655.0</ele><time>2026-09-10T01:51:20Z</time></trkpt>
<trkpt lat="42.804690" lon="140.792732"><ele>643.2</ele><time>2026-09-10T01:51:57Z</time></trkpt>
<trkpt lat="42.804489" lon="140.792513"><ele>635.4</ele><time>2026-09-10T01:52:26Z</time></trkpt>
<trkpt lat="42.804379" lon="140.792481"><ele>634.2</ele><time>2026-09-10T01:52:33Z</time></trkpt>
<trkpt lat="42.804272" lon="140.792536"><ele>631.8</ele><time>2026-09-10T01:52:44Z</time></trkpt>
<trkpt lat="42.803946" lon="140.792432"><ele>623.0</ele><time>2026-09-10T01:53:18Z</time></trkpt>
<trkpt lat="42.803842" lon="140.792458"><ele>620.2</ele><time>2026-09-10T01:53:32Z</time></trkpt>
<trkpt lat="42.803703" lon="140.792318"><ele>615.6</ele><time>2026-09-10T01:53:48Z</time></trkpt>
<trkpt lat="42.803570" lon="140.792285"><ele>609.8</ele><time>2026-09-10T01:54:13Z</time></trkpt>
<trkpt lat="42.803214" lon="140.792364"><ele>598.4</ele><time>2026-09-10T01:54:58Z</time></trkpt>
<trkpt lat="42.802691" lon="140.791844"><ele>582.8</ele><time>2026-09-10T01:56:06Z</time></trkpt>
<trkpt lat="42.802311" lon="140.791576"><ele>570.0</ele><time>2026-09-10T01:56:53Z</time></trkpt>
<trkpt lat="42.801908" lon="140.791538"><ele>558.4</ele><time>2026-09-10T01:57:35Z</time></trkpt>
<trkpt lat="42.801764" lon="140.791434"><ele>554.4</ele><time>2026-09-10T01:57:54Z</time></trkpt>
<trkpt lat="42.801586" lon="140.791446"><ele>550.2</ele><time>2026-09-10T01:58:13Z</time></trkpt>
<trkpt lat="42.801431" lon="140.791352"><ele>544.2</ele><time>2026-09-10T01:58:35Z</time></trkpt>
<trkpt lat="42.801213" lon="140.791169"><ele>538.4</ele><time>2026-09-10T01:59:02Z</time></trkpt>
<trkpt lat="42.800969" lon="140.790701"><ele>527.6</ele><time>2026-09-10T01:59:56Z</time></trkpt>
<trkpt lat="42.800807" lon="140.790531"><ele>518.4</ele><time>2026-09-10T02:00:34Z</time></trkpt>
<trkpt lat="42.800477" lon="140.790281"><ele>506.4</ele><time>2026-09-10T02:01:41Z</time></trkpt>
<trkpt lat="42.800334" lon="140.790105"><ele>502.4</ele><time>2026-09-10T02:02:00Z</time></trkpt>
<trkpt lat="42.800195" lon="140.790034"><ele>498.0</ele><time>2026-09-10T02:02:13Z</time></trkpt>
<trkpt lat="42.800068" lon="140.789866"><ele>493.2</ele><time>2026-09-10T02:02:34Z</time></trkpt>
<trkpt lat="42.799941" lon="140.789829"><ele>490.0</ele><time>2026-09-10T02:02:47Z</time></trkpt>
<trkpt lat="42.799813" lon="140.789669"><ele>484.4</ele><time>2026-09-10T02:03:11Z</time></trkpt>
<trkpt lat="42.799766" lon="140.789508"><ele>482.2</ele><time>2026-09-10T02:03:22Z</time></trkpt>
<trkpt lat="42.799670" lon="140.789432"><ele>480.6</ele><time>2026-09-10T02:03:34Z</time></trkpt>
<trkpt lat="42.799649" lon="140.789300"><ele>477.6</ele><time>2026-09-10T02:03:46Z</time></trkpt>
<trkpt lat="42.799507" lon="140.789091"><ele>474.4</ele><time>2026-09-10T02:04:08Z</time></trkpt>
<trkpt lat="42.799419" lon="140.788727"><ele>471.2</ele><time>2026-09-10T02:04:34Z</time></trkpt>
<trkpt lat="42.798518" lon="140.788301"><ele>454.8</ele><time>2026-09-10T02:05:57Z</time></trkpt>
<trkpt lat="42.798105" lon="140.788006"><ele>448.0</ele><time>2026-09-10T02:06:40Z</time></trkpt>
<trkpt lat="42.797788" lon="140.787983"><ele>440.0</ele><time>2026-09-10T02:07:10Z</time></trkpt>
<trkpt lat="42.797811" lon="140.787653"><ele>426.0</ele><time>2026-09-10T02:07:59Z</time></trkpt>
<trkpt lat="42.797729" lon="140.787555"><ele>421.8</ele><time>2026-09-10T02:08:17Z</time></trkpt>
<trkpt lat="42.797810" lon="140.787052"><ele>415.0</ele><time>2026-09-10T02:08:58Z</time></trkpt>
<trkpt lat="42.797783" lon="140.786723"><ele>411.8</ele><time>2026-09-10T02:09:19Z</time></trkpt>
<trkpt lat="42.797588" lon="140.786646"><ele>408.4</ele><time>2026-09-10T02:09:38Z</time></trkpt>
<trkpt lat="42.797528" lon="140.786600"><ele>407.4</ele><time>2026-09-10T02:09:42Z</time></trkpt>
<trkpt lat="42.797556" lon="140.786537"><ele>407.0</ele><time>2026-09-10T02:09:57Z</time></trkpt>
<trkpt lat="42.797490" lon="140.786479"><ele>406.6</ele><time>2026-09-10T02:10:12Z</time></trkpt>
<trkpt lat="42.797450" lon="140.786515"><ele>406.6</ele><time>2026-09-10T02:10:17Z</time></trkpt>
<trkpt lat="42.797353" lon="140.786470"><ele>405.4</ele><time>2026-09-10T02:10:22Z</time></trkpt>
<trkpt lat="42.797041" lon="140.786228"><ele>400.8</ele><time>2026-09-10T02:10:46Z</time></trkpt>
<trkpt lat="42.796504" lon="140.786039"><ele>392.6</ele><time>2026-09-10T02:11:11Z</time></trkpt>
<trkpt lat="42.796419" lon="140.786117"><ele>391.0</ele><time>2026-09-10T02:11:20Z</time></trkpt></trkseg></trk></gpx>